[
  {
    "id": 1,
    "lat": 50.45,
    "lon": 30.524,
    "name:uk": "Київ",
    "name:en": "Kyiv"
  },
  {
    "id": 2,
    "lat": 51.494,
    "lon": 31.294,
    "name:uk": "Чернігів",
    "name:en": "Chernihiv"
  },
  {
    "id": 3,
    "lat": 46.484,
    "lon": 30.732,
    "name:uk": "Одеса",
    "name:en": "Odesa"
  },
  {
    "id": 4,
    "lat": 49.841,
    "lon": 24.031,
    "name:uk": "Львів",
    "name:en": "Lviv"
  },
  {
    "id": 5,
    "lat": 50.351,
    "lon": 30.95,
    "name:uk": "Бориспіль",
    "name:en": "Boryspil"
  },
  {
    "id": 6,
    "lat": 50.16,
    "lon": 35.522,
    "name:uk": "Богодухів",
    "name:en": "Bohodukhiv"
  },
  {
    "id": 7,
    "lat": 49.589,
    "lon": 34.55,
    "name:uk": "Полтава",
    "name:en": "Poltava"
  },
  {
    "id": 8,
    "lat": 49.374,
    "lon": 35.449,
    "name:uk": "Красноград",
    "name:en": "Krasnohrad"
  },
  {
    "id": 9,
    "lat": 47.85,
    "lon": 35.118,
    "name:uk": "Запоріжжя",
    "name:en": "Zaporizhzhia"
  },
  {
    "id": 10,
    "lat": 45.19,
    "lon": 33.367,
    "name:uk": "Євпаторія",
    "name:en": "Yevpatoriya"
  },
  {
    "id": 11,
    "lat": 47.095,
    "lon": 37.549,
    "name:uk": "Маріуполь",
    "name:en": "Mariupol"
  },
  {
    "id": 12,
    "lat": 50.52,
    "lon": 30.244,
    "name:uk": "Ірпінь",
    "name:en": "Irpin"
  },
  {
    "id": 13,
    "lat": 50.391,
    "lon": 30.367,
    "name:uk": "Вишневе",
    "name:en": "Vyshneve"
  },
  {
    "id": 14,
    "lat": 50.335,
    "lon": 30.284,
    "name:uk": "Боярка",
    "name:en": "Boiarka"
  },
  {
    "id": 15,
    "lat": 48.015,
    "lon": 37.801,
    "name:uk": "Донецьк",
    "name:en": "Donetsk"
  },
  {
    "id": 16,
    "lat": 46.975,
    "lon": 31.993,
    "name:uk": "Миколаїв",
    "name:en": "Mykolaiv"
  },
  {
    "id": 17,
    "lat": 47.983,
    "lon": 37.282,
    "name:uk": "Курахове",
    "name:en": "Kurakhove"
  },
  {
    "id": 18,
    "lat": 48.622,
    "lon": 22.302,
    "name:uk": "Ужгород",
    "name:en": "Uzhhorod"
  },
  {
    "id": 19,
    "lat": 48.431,
    "lon": 22.206,
    "name:uk": "Чоп",
    "name:en": "Chop"
  },
  {
    "id": 20,
    "lat": 51.27,
    "lon": 30.219,
    "name:uk": "Чорнобиль",
    "name:en": "Chornobyl"
  },
  {
    "id": 21,
    "lat": 51.405,
    "lon": 30.057,
    "name:uk": "Прип’ять",
    "name:en": "Pripyat"
  },
  {
    "id": 22,
    "lat": 50.591,
    "lon": 27.606,
    "name:uk": "Новоград-Волинський",
    "name:en": "Novohrad-Volynskyi"
  },
  {
    "id": 23,
    "lat": 50.619,
    "lon": 26.251,
    "name:uk": "Рівне",
    "name:en": "Rivne"
  },
  {
    "id": 24,
    "lat": 50.745,
    "lon": 25.32,
    "name:uk": "Луцьк",
    "name:en": "Lutsk"
  },
  {
    "id": 25,
    "lat": 51.212,
    "lon": 24.708,
    "name:uk": "Ковель",
    "name:en": "Kovel"
  },
  {
    "id": 26,
    "lat": 50.37,
    "lon": 33.995,
    "name:uk": "Гадяч",
    "name:en": "Hadiach"
  },
  {
    "id": 27,
    "lat": 49.255,
    "lon": 23.853,
    "name:uk": "Стрий",
    "name:en": "Stryi"
  },
  {
    "id": 28,
    "lat": 48.749,
    "lon": 30.22,
    "name:uk": "Умань",
    "name:en": "Uman"
  },
  {
    "id": 29,
    "lat": 48.829,
    "lon": 30.041,
    "name:uk": "Верхнячка",
    "name:en": "Verkhniachka"
  },
  {
    "id": 30,
    "lat": 49.232,
    "lon": 28.467,
    "name:uk": "Вінниця",
    "name:en": "Vinnytsia"
  },
  {
    "id": 31,
    "lat": 44.605,
    "lon": 33.522,
    "name:uk": "Севастополь",
    "name:en": "Sevastopol"
  },
  {
    "id": 32,
    "lat": 49.419,
    "lon": 26.979,
    "name:uk": "Хмельницький",
    "name:en": "Khmelnytskyi"
  },
  {
    "id": 33,
    "lat": 50.259,
    "lon": 28.669,
    "name:uk": "Житомир",
    "name:en": "Zhytomyr"
  },
  {
    "id": 34,
    "lat": 44.952,
    "lon": 34.102,
    "name:uk": "Сімферополь",
    "name:en": "Simferopol"
  },
  {
    "id": 35,
    "lat": 48.719,
    "lon": 32.665,
    "name:uk": "Знам’янка",
    "name:en": "Znamianka"
  },
  {
    "id": 36,
    "lat": 46.614,
    "lon": 31.545,
    "name:uk": "Очаків",
    "name:en": "Ochakiv"
  },
  {
    "id": 37,
    "lat": 48.571,
    "lon": 39.297,
    "name:uk": "Луганськ",
    "name:en": "Luhansk"
  },
  {
    "id": 38,
    "lat": 48.469,
    "lon": 38.799,
    "name:uk": "Алчевськ",
    "name:en": "Alchevsk"
  },
  {
    "id": 39,
    "lat": 49.278,
    "lon": 23.506,
    "name:uk": "Трускавець",
    "name:en": "Truskavets"
  },
  {
    "id": 40,
    "lat": 44.677,
    "lon": 34.409,
    "name:uk": "Алушта",
    "name:en": "Alushta"
  },
  {
    "id": 41,
    "lat": 49.803,
    "lon": 30.111,
    "name:uk": "Біла Церква",
    "name:en": "Bila Tserkva"
  },
  {
    "id": 42,
    "lat": 50.32,
    "lon": 29.058,
    "name:uk": "Коростишів",
    "name:en": "Korostyshiv"
  },
  {
    "id": 43,
    "lat": 46.641,
    "lon": 32.625,
    "name:uk": "Херсон",
    "name:en": "Kherson"
  },
  {
    "id": 44,
    "lat": 45.709,
    "lon": 34.389,
    "name:uk": "Джанкой",
    "name:en": "Dzhankoy"
  },
  {
    "id": 45,
    "lat": 47.881,
    "lon": 38.074,
    "name:uk": "Моспине",
    "name:en": "Mospyne"
  },
  {
    "id": 46,
    "lat": 47.889,
    "lon": 37.928,
    "name:uk": "Ларине",
    "name:en": "Laryne"
  },
  {
    "id": 47,
    "lat": 48.591,
    "lon": 37.983,
    "name:uk": "Бахмут",
    "name:en": "Bakhmut"
  },
  {
    "id": 48,
    "lat": 48.662,
    "lon": 38.015,
    "name:uk": "Красна Гора",
    "name:en": "Krasna Hora"
  },
  {
    "id": 49,
    "lat": 48.694,
    "lon": 38.062,
    "name:uk": "Соледар",
    "name:en": "Soledar"
  },
  {
    "id": 50,
    "lat": 48.587,
    "lon": 37.837,
    "name:uk": "Часів Яр",
    "name:en": "Chasiv Yar"
  },
  {
    "id": 51,
    "lat": 48.305,
    "lon": 38.002,
    "name:uk": "Горлівка",
    "name:en": "Horlivka"
  },
  {
    "id": 52,
    "lat": 48.4,
    "lon": 38.026,
    "name:uk": "Зайцеве",
    "name:en": "Zaitseve"
  },
  {
    "id": 53,
    "lat": 48.462,
    "lon": 38.275,
    "name:uk": "Миронівський",
    "name:en": "Myronivskyi"
  },
  {
    "id": 54,
    "lat": 48.333,
    "lon": 38.404,
    "name:uk": "Дебальцеве",
    "name:en": "Debaltseve"
  },
  {
    "id": 55,
    "lat": 48.397,
    "lon": 37.85,
    "name:uk": "Торецьк",
    "name:en": "Toretsk"
  },
  {
    "id": 56,
    "lat": 48.438,
    "lon": 38.223,
    "name:uk": "Світлодарськ",
    "name:en": "Svitlodarsk"
  },
  {
    "id": 57,
    "lat": 48.396,
    "lon": 37.916,
    "name:uk": "Північне",
    "name:en": "Pivnichne"
  },
  {
    "id": 58,
    "lat": 48.468,
    "lon": 37.956,
    "name:uk": "Курдюмівка",
    "name:en": "Kurdiumivka"
  },
  {
    "id": 59,
    "lat": 48.364,
    "lon": 37.906,
    "name:uk": "Південне",
    "name:en": "Pivdenne"
  },
  {
    "id": 60,
    "lat": 48.351,
    "lon": 37.837,
    "name:uk": "Неліпівка",
    "name:en": "Nelipivka"
  },
  {
    "id": 61,
    "lat": 48.332,
    "lon": 37.836,
    "name:uk": "Нью-Йорк",
    "name:en": "New York"
  },
  {
    "id": 62,
    "lat": 48.387,
    "lon": 37.782,
    "name:uk": "Петрівка",
    "name:en": "Petrivka"
  },
  {
    "id": 63,
    "lat": 48.394,
    "lon": 37.79,
    "name:uk": "Щербинівка",
    "name:en": "Scherbynivka"
  },
  {
    "id": 64,
    "lat": 48.307,
    "lon": 37.259,
    "name:uk": "Мирноград",
    "name:en": "Myrnohrad"
  },
  {
    "id": 65,
    "lat": 48.373,
    "lon": 37.882,
    "name:uk": "Залізне",
    "name:en": "Zalizne"
  },
  {
    "id": 66,
    "lat": 48.408,
    "lon": 37.179,
    "name:uk": "Білицьке",
    "name:en": "Bilytske"
  },
  {
    "id": 67,
    "lat": 48.634,
    "lon": 36.981,
    "name:uk": "Новодонецьке",
    "name:en": "Novodonetske"
  },
  {
    "id": 68,
    "lat": 48.41,
    "lon": 37.104,
    "name:uk": "Водянське",
    "name:en": "Vodianske"
  },
  {
    "id": 69,
    "lat": 47.749,
    "lon": 37.671,
    "name:uk": "Докучаєвськ",
    "name:en": "Dokuchaevsk"
  },
  {
    "id": 70,
    "lat": 48.533,
    "lon": 37.057,
    "name:uk": "Білозерське",
    "name:en": "Bilozerske"
  },
  {
    "id": 71,
    "lat": 48.563,
    "lon": 37.374,
    "name:uk": "Новомиколаївка",
    "name:en": "Novomykolaivka"
  },
  {
    "id": 72,
    "lat": 48.576,
    "lon": 37.419,
    "name:uk": "Новогригорівка",
    "name:en": "Novohryhorivka"
  },
  {
    "id": 73,
    "lat": 48.578,
    "lon": 37.604,
    "name:uk": "Олексієво-Дружківка",
    "name:en": "Oleksiievo-Druzhkivka"
  },
  {
    "id": 74,
    "lat": 48.619,
    "lon": 37.524,
    "name:uk": "Дружківка",
    "name:en": "Druzhkivka"
  },
  {
    "id": 75,
    "lat": 48.27,
    "lon": 38.285,
    "name:uk": "Олександрівське",
    "name:en": "Oleksandrivske"
  },
  {
    "id": 76,
    "lat": 48.252,
    "lon": 38.336,
    "name:uk": "Булавинське",
    "name:en": "Bulavynske"
  },
  {
    "id": 77,
    "lat": 48.198,
    "lon": 38.281,
    "name:uk": "Дружне",
    "name:en": "Druzhne"
  },
  {
    "id": 78,
    "lat": 48.569,
    "lon": 37.466,
    "name:uk": "Райське",
    "name:en": "Raiske"
  },
  {
    "id": 79,
    "lat": 48.27,
    "lon": 38.144,
    "name:uk": "Карло-Марксове",
    "name:en": "Karlo-Marksove"
  },
  {
    "id": 80,
    "lat": 48.204,
    "lon": 38.082,
    "name:uk": "Корсунь",
    "name:en": "Korsun"
  },
  {
    "id": 81,
    "lat": 48.265,
    "lon": 38.258,
    "name:uk": "Оленівка",
    "name:en": "Olenivka"
  },
  {
    "id": 82,
    "lat": 48.24,
    "lon": 38.403,
    "name:uk": "Ольховатка",
    "name:en": "Olkhovatka"
  },
  {
    "id": 83,
    "lat": 48.221,
    "lon": 38.287,
    "name:uk": "Юнокомунарівськ",
    "name:en": "Bunge"
  },
  {
    "id": 84,
    "lat": 48.311,
    "lon": 38.26,
    "name:uk": "Вуглегірськ",
    "name:en": "Vuhlehirsk"
  },
  {
    "id": 85,
    "lat": 48.246,
    "lon": 38.323,
    "name:uk": "Прибережне",
    "name:en": "Pryberezhne"
  },
  {
    "id": 86,
    "lat": 47.192,
    "lon": 37.725,
    "name:uk": "Талаківка",
    "name:en": "Talakivka"
  },
  {
    "id": 87,
    "lat": 47.17,
    "lon": 37.695,
    "name:uk": "Сартана",
    "name:en": "Sartana"
  },
  {
    "id": 88,
    "lat": 48.157,
    "lon": 38.256,
    "name:uk": "Жданівка",
    "name:en": "Zhdanivka"
  },
  {
    "id": 89,
    "lat": 48.111,
    "lon": 38.306,
    "name:uk": "Вільхівка",
    "name:en": "Vilkhivka"
  },
  {
    "id": 90,
    "lat": 48.759,
    "lon": 37.617,
    "name:uk": "Біленьке",
    "name:en": "Bilenke"
  },
  {
    "id": 91,
    "lat": 48.744,
    "lon": 37.485,
    "name:uk": "Олександрівка",
    "name:en": "Oleksandrivka"
  },
  {
    "id": 92,
    "lat": 48.534,
    "lon": 37.692,
    "name:uk": "Костянтинівка",
    "name:en": "Kostiantynivka"
  },
  {
    "id": 93,
    "lat": 48.778,
    "lon": 37.553,
    "name:uk": "Ясногірка",
    "name:en": "Yasnohirka"
  },
  {
    "id": 94,
    "lat": 48.743,
    "lon": 37.527,
    "name:uk": "Ясна Поляна",
    "name:en": "Yasna Poliana"
  },
  {
    "id": 95,
    "lat": 48.75,
    "lon": 37.49,
    "name:uk": "Шабельківка",
    "name:en": "Shabelkivka"
  },
  {
    "id": 96,
    "lat": 48.741,
    "lon": 37.513,
    "name:uk": "Софіївка",
    "name:en": "Sofiivka"
  },
  {
    "id": 97,
    "lat": 48.66,
    "lon": 37.512,
    "name:uk": "Малотаранівка",
    "name:en": "Malotaranivka"
  },
  {
    "id": 98,
    "lat": 48.679,
    "lon": 37.521,
    "name:uk": "Красноторка",
    "name:en": "Krasnotorka"
  },
  {
    "id": 99,
    "lat": 48.64,
    "lon": 37.455,
    "name:uk": "Комишуваха",
    "name:en": "Komyshuvakha"
  },
  {
    "id": 100,
    "lat": 48.98,
    "lon": 37.816,
    "name:uk": "Лиман",
    "name:en": "Lyman"
  },
  {
    "id": 101,
    "lat": 48.353,
    "lon": 37.203,
    "name:uk": "Родинське",
    "name:en": "Rodynske"
  },
  {
    "id": 102,
    "lat": 48.221,
    "lon": 37.142,
    "name:uk": "Шевченко",
    "name:en": "Shevchenko"
  },
  {
    "id": 103,
    "lat": 48.277,
    "lon": 37.177,
    "name:uk": "Покровськ",
    "name:en": "Pokrovsk"
  },
  {
    "id": 104,
    "lat": 48.098,
    "lon": 38.132,
    "name:uk": "Лісне",
    "name:en": "Lisne"
  },
  {
    "id": 105,
    "lat": 48.128,
    "lon": 38.027,
    "name:uk": "Кринична",
    "name:en": "Krynychna"
  },
  {
    "id": 106,
    "lat": 48.082,
    "lon": 38.148,
    "name:uk": "Красний Октябр",
    "name:en": "Krasnyi Oktiabr"
  },
  {
    "id": 107,
    "lat": 48.016,
    "lon": 38.059,
    "name:uk": "Вугляр",
    "name:en": "Vuhliar"
  },
  {
    "id": 108,
    "lat": 47.971,
    "lon": 38.016,
    "name:uk": "Маяк",
    "name:en": "Maiak"
  },
  {
    "id": 109,
    "lat": 48.044,
    "lon": 37.963,
    "name:uk": "Макіївка",
    "name:en": "Makiivka"
  },
  {
    "id": 110,
    "lat": 48.086,
    "lon": 38.133,
    "name:uk": "Велике Оріхове",
    "name:en": "Velyke Orikhove"
  },
  {
    "id": 111,
    "lat": 48.113,
    "lon": 38.166,
    "name:uk": "Нижня Кринка",
    "name:en": "Nyzhnia Krynka"
  },
  {
    "id": 112,
    "lat": 48.027,
    "lon": 38.062,
    "name:uk": "Свердлове",
    "name:en": "Sverdlove"
  },
  {
    "id": 113,
    "lat": 47.944,
    "lon": 38.057,
    "name:uk": "Високе",
    "name:en": "Vysoke"
  },
  {
    "id": 114,
    "lat": 47.948,
    "lon": 38.082,
    "name:uk": "Грузько-Зорянське",
    "name:en": "Hruzko-Zorianske"
  },
  {
    "id": 115,
    "lat": 47.909,
    "lon": 38.105,
    "name:uk": "Грузько-Ломівка",
    "name:en": "Hruzko-Lomivka"
  },
  {
    "id": 116,
    "lat": 47.995,
    "lon": 38.118,
    "name:uk": "Гусельське",
    "name:en": "Huselske"
  },
  {
    "id": 117,
    "lat": 48.045,
    "lon": 38.061,
    "name:uk": "Колосникове",
    "name:en": "Kolosnykove"
  },
  {
    "id": 118,
    "lat": 47.966,
    "lon": 38.07,
    "name:uk": "Межове",
    "name:en": "Mezhove"
  },
  {
    "id": 119,
    "lat": 48.016,
    "lon": 38.097,
    "name:uk": "Пролетарське",
    "name:en": "Proletarske"
  },
  {
    "id": 120,
    "lat": 48.094,
    "lon": 37.358,
    "name:uk": "Українськ",
    "name:en": "Ukrainsk"
  },
  {
    "id": 121,
    "lat": 48.056,
    "lon": 37.372,
    "name:uk": "Гірник",
    "name:en": "Hirnyk"
  },
  {
    "id": 122,
    "lat": 48.084,
    "lon": 37.316,
    "name:uk": "Цукурине",
    "name:en": "Tsukuryne"
  },
  {
    "id": 123,
    "lat": 47.993,
    "lon": 37.4,
    "name:uk": "Гостре",
    "name:en": "Hostre"
  },
  {
    "id": 124,
    "lat": 48.022,
    "lon": 38.763,
    "name:uk": "Сніжне",
    "name:en": "Snizhne"
  },
  {
    "id": 125,
    "lat": 48.861,
    "lon": 37.761,
    "name:uk": "Миколаївка",
    "name:en": "Mykolaivka"
  },
  {
    "id": 126,
    "lat": 48.852,
    "lon": 37.605,
    "name:uk": "Слов’янськ",
    "name:en": "Sloviansk"
  },
  {
    "id": 127,
    "lat": 48.199,
    "lon": 37.339,
    "name:uk": "Новогродівка",
    "name:en": "Novohrodivka"
  },
  {
    "id": 128,
    "lat": 48.029,
    "lon": 37.371,
    "name:uk": "Курахівка",
    "name:en": "Kurakhivka"
  },
  {
    "id": 129,
    "lat": 48.18,
    "lon": 37.468,
    "name:uk": "Комишівка",
    "name:en": "Komyshivka"
  },
  {
    "id": 130,
    "lat": 48.15,
    "lon": 37.246,
    "name:uk": "Вишневе",
    "name:en": "Vyshneve"
  },
  {
    "id": 131,
    "lat": 48.15,
    "lon": 37.301,
    "name:uk": "Селидове",
    "name:en": "Selydove"
  },
  {
    "id": 132,
    "lat": 48.082,
    "lon": 38.685,
    "name:uk": "Сєверне",
    "name:en": "Sieverne"
  },
  {
    "id": 133,
    "lat": 47.978,
    "lon": 38.808,
    "name:uk": "Побєда",
    "name:en": "Pobieda"
  },
  {
    "id": 134,
    "lat": 48.092,
    "lon": 38.608,
    "name:uk": "Пелагіївка",
    "name:en": "Pelahiivka"
  },
  {
    "id": 135,
    "lat": 48.13,
    "lon": 38.566,
    "name:uk": "Розсипне",
    "name:en": "Rozsypne"
  },
  {
    "id": 136,
    "lat": 48.025,
    "lon": 38.618,
    "name:uk": "Торез",
    "name:en": "Torez"
  },
  {
    "id": 137,
    "lat": 48.004,
    "lon": 38.833,
    "name:uk": "Гірницьке",
    "name:en": "Hirnytske"
  },
  {
    "id": 138,
    "lat": 48.031,
    "lon": 38.809,
    "name:uk": "Залісне",
    "name:en": "Zalisne"
  },
  {
    "id": 139,
    "lat": 48.114,
    "lon": 38.717,
    "name:uk": "Андріївка",
    "name:en": "Andriivka"
  },
  {
    "id": 140,
    "lat": 47.996,
    "lon": 38.826,
    "name:uk": "Бражине",
    "name:en": "Brazhyne"
  },
  {
    "id": 141,
    "lat": 47.972,
    "lon": 38.788,
    "name:uk": "Первомайський",
    "name:en": "Pervomaiskyi"
  },
  {
    "id": 142,
    "lat": 48.014,
    "lon": 38.824,
    "name:uk": "Лиманчук",
    "name:en": "Lymanchuk"
  },
  {
    "id": 143,
    "lat": 48.007,
    "lon": 38.854,
    "name:uk": "Никифорове",
    "name:en": "Nykyforove"
  },
  {
    "id": 144,
    "lat": 47.924,
    "lon": 38.197,
    "name:uk": "Іловайськ",
    "name:en": "Ilovaisk"
  },
  {
    "id": 145,
    "lat": 47.957,
    "lon": 38.23,
    "name:uk": "Широке",
    "name:en": "Shyroke"
  },
  {
    "id": 146,
    "lat": 48.001,
    "lon": 38.245,
    "name:uk": "Миколаївка",
    "name:en": "Mykolaivka"
  },
  {
    "id": 147,
    "lat": 48.062,
    "lon": 38.25,
    "name:uk": "Зуївка",
    "name:en": "Zuivka"
  },
  {
    "id": 148,
    "lat": 47.968,
    "lon": 38.267,
    "name:uk": "Троїцько-Харцизьк",
    "name:en": "Troitsko-Khartsyzk"
  },
  {
    "id": 149,
    "lat": 47.934,
    "lon": 38.278,
    "name:uk": "Покровка",
    "name:en": "Pokrovka"
  },
  {
    "id": 150,
    "lat": 48.033,
    "lon": 38.149,
    "name:uk": "Харцизьк",
    "name:en": "Khartsyzk"
  },
  {
    "id": 151,
    "lat": 47.78,
    "lon": 37.248,
    "name:uk": "Вугледар",
    "name:en": "Vuhledar"
  },
  {
    "id": 152,
    "lat": 48.06,
    "lon": 38.197,
    "name:uk": "Гірне",
    "name:en": "Hirne"
  },
  {
    "id": 153,
    "lat": 47.969,
    "lon": 38.207,
    "name:uk": "Войкове",
    "name:en": "Voikove"
  },
  {
    "id": 154,
    "lat": 48.118,
    "lon": 38.472,
    "name:uk": "Стіжківське",
    "name:en": "Stizhkivske"
  },
  {
    "id": 155,
    "lat": 48.109,
    "lon": 38.54,
    "name:uk": "Московське",
    "name:en": "Moskovske"
  },
  {
    "id": 156,
    "lat": 48.04,
    "lon": 38.394,
    "name:uk": "Сердите",
    "name:en": "Serdyte"
  },
  {
    "id": 157,
    "lat": 48.055,
    "lon": 38.445,
    "name:uk": "Шахтарськ",
    "name:en": "Shakhtarsk"
  },
  {
    "id": 158,
    "lat": 48.089,
    "lon": 38.51,
    "name:uk": "Контарне",
    "name:en": "Kontarne"
  },
  {
    "id": 159,
    "lat": 48.707,
    "lon": 36.92,
    "name:uk": "Олександрівка",
    "name:en": "Oleksandrivka"
  },
  {
    "id": 160,
    "lat": 48.127,
    "lon": 37.859,
    "name:uk": "Ясинувата",
    "name:en": "Yasynuvata"
  },
  {
    "id": 161,
    "lat": 47.795,
    "lon": 38.479,
    "name:uk": "Амвросіївка",
    "name:en": "Amvrosiivka"
  },
  {
    "id": 162,
    "lat": 47.76,
    "lon": 38.337,
    "name:uk": "Войковський",
    "name:en": "Voikovskyi"
  },
  {
    "id": 163,
    "lat": 47.809,
    "lon": 38.286,
    "name:uk": "Кутейникове",
    "name:en": "Kuteinykove"
  },
  {
    "id": 164,
    "lat": 47.833,
    "lon": 38.501,
    "name:uk": "Новоамвросіївське",
    "name:en": "Novoamvrosiivske"
  },
  {
    "id": 165,
    "lat": 48.873,
    "lon": 38.095,
    "name:uk": "Сіверськ",
    "name:en": "Siversk"
  },
  {
    "id": 166,
    "lat": 47.84,
    "lon": 36.83,
    "name:uk": "Велика Новосілка",
    "name:en": "Velyka Novosilka"
  },
  {
    "id": 167,
    "lat": 47.699,
    "lon": 37.419,
    "name:uk": "Благодатне",
    "name:en": "Blahodatne"
  },
  {
    "id": 168,
    "lat": 47.726,
    "lon": 37.405,
    "name:uk": "Володимирівка",
    "name:en": "Volodymyrivka"
  },
  {
    "id": 169,
    "lat": 47.598,
    "lon": 37.499,
    "name:uk": "Волноваха",
    "name:en": "Volnovakha"
  },
  {
    "id": 170,
    "lat": 47.676,
    "lon": 37.411,
    "name:uk": "Графське",
    "name:en": "Grafske"
  },
  {
    "id": 171,
    "lat": 47.515,
    "lon": 37.537,
    "name:uk": "Донське",
    "name:en": "Donske"
  },
  {
    "id": 172,
    "lat": 47.716,
    "lon": 37.581,
    "name:uk": "Новотроїцьке",
    "name:en": "Novotroitske"
  },
  {
    "id": 173,
    "lat": 47.697,
    "lon": 37.5,
    "name:uk": "Ольгинка",
    "name:en": "Olhynka"
  },
  {
    "id": 174,
    "lat": 47.2,
    "lon": 37.316,
    "name:uk": "Нікольське",
    "name:en": "Nikolske"
  },
  {
    "id": 175,
    "lat": 48.262,
    "lon": 37.378,
    "name:uk": "Гродівка",
    "name:en": "Hrodivka"
  },
  {
    "id": 176,
    "lat": 48.239,
    "lon": 36.982,
    "name:uk": "Удачне",
    "name:en": "Udachne"
  },
  {
    "id": 177,
    "lat": 48.325,
    "lon": 37.332,
    "name:uk": "Новоекономічне",
    "name:en": "Novoekonomichne"
  },
  {
    "id": 178,
    "lat": 49.075,
    "lon": 37.697,
    "name:uk": "Новоселівка",
    "name:en": "Novoselivka"
  },
  {
    "id": 179,
    "lat": 48.94,
    "lon": 37.96,
    "name:uk": "Ямпіль",
    "name:en": "Yampil"
  },
  {
    "id": 180,
    "lat": 49.06,
    "lon": 37.639,
    "name:uk": "Ярова",
    "name:en": "Yarova"
  },
  {
    "id": 181,
    "lat": 49.022,
    "lon": 37.938,
    "name:uk": "Зарічне",
    "name:en": "Zarichne"
  },
  {
    "id": 182,
    "lat": 49.043,
    "lon": 37.734,
    "name:uk": "Дробишеве",
    "name:en": "Drobysheve"
  },
  {
    "id": 183,
    "lat": 47.07,
    "lon": 38.16,
    "name:uk": "Сєдове",
    "name:en": "Siedove"
  },
  {
    "id": 184,
    "lat": 47.113,
    "lon": 38.083,
    "name:uk": "Новоазовськ",
    "name:en": "Novoazovsk"
  },
  {
    "id": 185,
    "lat": 47.921,
    "lon": 37.572,
    "name:uk": "Олександрівка",
    "name:en": "Oleksandrivka"
  },
  {
    "id": 186,
    "lat": 48.01,
    "lon": 37.504,
    "name:uk": "Красногорівка",
    "name:en": "Krasnohorivka"
  },
  {
    "id": 187,
    "lat": 47.94,
    "lon": 37.502,
    "name:uk": "Мар’їнка",
    "name:en": "Marinka"
  },
  {
    "id": 188,
    "lat": 46.958,
    "lon": 37.277,
    "name:uk": "Ялта",
    "name:en": "Yalta"
  },
  {
    "id": 189,
    "lat": 47.056,
    "lon": 37.307,
    "name:uk": "Мангуш",
    "name:en": "Manhush"
  },
  {
    "id": 190,
    "lat": 47.462,
    "lon": 37.652,
    "name:uk": "Андріївка",
    "name:en": "Andriivka"
  },
  {
    "id": 191,
    "lat": 47.412,
    "lon": 38.018,
    "name:uk": "Тельманове",
    "name:en": "Telmanove"
  },
  {
    "id": 192,
    "lat": 48.84,
    "lon": 37.507,
    "name:uk": "Билбасівка",
    "name:en": "Bylbasivka"
  },
  {
    "id": 193,
    "lat": 48.934,
    "lon": 37.69,
    "name:uk": "Донецьке",
    "name:en": "Donetske"
  },
  {
    "id": 194,
    "lat": 48.897,
    "lon": 37.727,
    "name:uk": "Райгородок",
    "name:en": "Raihorodok"
  },
  {
    "id": 195,
    "lat": 47.749,
    "lon": 38.025,
    "name:uk": "Старобешеве",
    "name:en": "Starobesheve"
  },
  {
    "id": 196,
    "lat": 48.224,
    "lon": 37.875,
    "name:uk": "Верхньоторецьке",
    "name:en": "Verkhnotoretske"
  },
  {
    "id": 197,
    "lat": 48.246,
    "lon": 37.603,
    "name:uk": "Очеретине",
    "name:en": "Ocheretyne"
  },
  {
    "id": 198,
    "lat": 48.253,
    "lon": 37.682,
    "name:uk": "Керамік",
    "name:en": "Keramik"
  },
  {
    "id": 199,
    "lat": 48.207,
    "lon": 37.437,
    "name:uk": "Желанне",
    "name:en": "Zhelanne"
  },
  {
    "id": 200,
    "lat": 46.755,
    "lon": 36.788,
    "name:uk": "Бердянськ",
    "name:en": "Berdiansk"
  },
  {
    "id": 201,
    "lat": 50.722,
    "lon": 24.164,
    "name:uk": "Нововолинськ",
    "name:en": "Novovolynsk"
  },
  {
    "id": 202,
    "lat": 50.862,
    "lon": 24.15,
    "name:uk": "Устилуг",
    "name:en": "Ustyluh"
  },
  {
    "id": 203,
    "lat": 50.847,
    "lon": 24.319,
    "name:uk": "Володимир",
    "name:en": "Volodymyr"
  },
  {
    "id": 204,
    "lat": 51.227,
    "lon": 24.039,
    "name:uk": "Любомль",
    "name:en": "Liuboml"
  },
  {
    "id": 205,
    "lat": 51.49,
    "lon": 23.921,
    "name:uk": "Шацьк",
    "name:en": "Shatsk"
  },
  {
    "id": 206,
    "lat": 50.637,
    "lon": 24.358,
    "name:uk": "Іваничі",
    "name:en": "Ivanychi"
  },
  {
    "id": 207,
    "lat": 50.394,
    "lon": 24.239,
    "name:uk": "Червоноград",
    "name:en": "Chervonohrad"
  },
  {
    "id": 208,
    "lat": 50.056,
    "lon": 23.971,
    "name:uk": "Жовква",
    "name:en": "Zhovkva"
  },
  {
    "id": 209,
    "lat": 50.479,
    "lon": 24.277,
    "name:uk": "Сокаль",
    "name:en": "Sokal"
  },
  {
    "id": 210,
    "lat": 49.784,
    "lon": 23.646,
    "name:uk": "Городок",
    "name:en": "Horodok"
  },
  {
    "id": 211,
    "lat": 48.45,
    "lon": 24.55,
    "name:uk": "Яремче",
    "name:en": "Yaremche"
  },
  {
    "id": 212,
    "lat": 48.292,
    "lon": 24.563,
    "name:uk": "Ворохта",
    "name:en": "Vorokhta"
  },
  {
    "id": 213,
    "lat": 49.836,
    "lon": 36.689,
    "name:uk": "Чугуїв",
    "name:en": "Chuhuiv"
  },
  {
    "id": 214,
    "lat": 49.444,
    "lon": 32.058,
    "name:uk": "Черкаси",
    "name:en": "Cherkasy"
  },
  {
    "id": 215,
    "lat": 50.907,
    "lon": 34.798,
    "name:uk": "Суми",
    "name:en": "Sumy"
  },
  {
    "id": 216,
    "lat": 49.062,
    "lon": 33.403,
    "name:uk": "Кременчук",
    "name:en": "Kremenchuk"
  },
  {
    "id": 217,
    "lat": 47.569,
    "lon": 34.391,
    "name:uk": "Нікополь",
    "name:en": "Nikopol"
  },
  {
    "id": 218,
    "lat": 48.531,
    "lon": 35.87,
    "name:uk": "Павлоград",
    "name:en": "Pavlohrad"
  },
  {
    "id": 219,
    "lat": 44.512,
    "lon": 33.599,
    "name:uk": "Балаклава",
    "name:en": "Balaklava"
  },
  {
    "id": 220,
    "lat": 48.901,
    "lon": 24.848,
    "name:uk": "Тисмениця",
    "name:en": "Tysmenytsia"
  },
  {
    "id": 221,
    "lat": 48.465,
    "lon": 26.829,
    "name:uk": "Кельменці",
    "name:en": "Kelmentsi"
  },
  {
    "id": 222,
    "lat": 48.506,
    "lon": 26.485,
    "name:uk": "Хотин",
    "name:en": "Khotyn"
  },
  {
    "id": 223,
    "lat": 48.678,
    "lon": 26.585,
    "name:uk": "Кам’янець-Подільський",
    "name:en": "Kamianets-Podilskyi"
  },
  {
    "id": 224,
    "lat": 48.922,
    "lon": 24.71,
    "name:uk": "Івано-Франківськ",
    "name:en": "Ivano-Frankivsk"
  },
  {
    "id": 225,
    "lat": 51.348,
    "lon": 25.85,
    "name:uk": "Вараш",
    "name:en": "Varash"
  },
  {
    "id": 226,
    "lat": 51.253,
    "lon": 32.426,
    "name:uk": "Борзна",
    "name:en": "Borzna"
  },
  {
    "id": 227,
    "lat": 48.738,
    "lon": 37.584,
    "name:uk": "Краматорськ",
    "name:en": "Kramatorsk"
  },
  {
    "id": 228,
    "lat": 45.308,
    "lon": 33.035,
    "name:uk": "Мирний",
    "name:en": "Mirnyi"
  },
  {
    "id": 229,
    "lat": 48.525,
    "lon": 25.038,
    "name:uk": "Коломия",
    "name:en": "Kolomyia"
  },
  {
    "id": 230,
    "lat": 48.382,
    "lon": 25.517,
    "name:uk": "Вашківці",
    "name:en": "Vashkivtsi"
  },
  {
    "id": 231,
    "lat": 48.248,
    "lon": 25.189,
    "name:uk": "Вижниця",
    "name:en": "Vyzhnytsia"
  },
  {
    "id": 232,
    "lat": 48.15,
    "lon": 26.258,
    "name:uk": "Герца",
    "name:en": "Hertsa"
  },
  {
    "id": 233,
    "lat": 48.523,
    "lon": 25.845,
    "name:uk": "Заставна",
    "name:en": "Zastavna"
  },
  {
    "id": 234,
    "lat": 48.438,
    "lon": 25.761,
    "name:uk": "Кіцмань",
    "name:en": "Kitsman"
  },
  {
    "id": 235,
    "lat": 48.584,
    "lon": 27.431,
    "name:uk": "Новодністровськ",
    "name:en": "Novodnistrovsk"
  },
  {
    "id": 236,
    "lat": 48.217,
    "lon": 26.266,
    "name:uk": "Новоселиця",
    "name:en": "Novoselytsia"
  },
  {
    "id": 237,
    "lat": 48.446,
    "lon": 27.411,
    "name:uk": "Сокиряни",
    "name:en": "Sokyriany"
  },
  {
    "id": 238,
    "lat": 48.162,
    "lon": 25.72,
    "name:uk": "Сторожинець",
    "name:en": "Storozhynets"
  },
  {
    "id": 239,
    "lat": 50.12,
    "lon": 32.428,
    "name:uk": "Гребінка",
    "name:en": "Hrebinka"
  },
  {
    "id": 240,
    "lat": 50.011,
    "lon": 33.003,
    "name:uk": "Лубни",
    "name:en": "Lubny"
  },
  {
    "id": 241,
    "lat": 48.555,
    "lon": 24.752,
    "name:uk": "Ланчин",
    "name:en": "Lanchyn"
  },
  {
    "id": 242,
    "lat": 50.582,
    "lon": 30.485,
    "name:uk": "Вишгород",
    "name:en": "Vyshhorod"
  },
  {
    "id": 243,
    "lat": 48.466,
    "lon": 25.283,
    "name:uk": "Заболотів",
    "name:en": "Zabolotiv"
  },
  {
    "id": 244,
    "lat": 44.752,
    "lon": 33.853,
    "name:uk": "Бахчисарай",
    "name:en": "Bakhchysarai"
  },
  {
    "id": 245,
    "lat": 48.358,
    "lon": 25.769,
    "name:uk": "Лужани",
    "name:en": "Luzhany"
  },
  {
    "id": 246,
    "lat": 50.646,
    "lon": 29.925,
    "name:uk": "Бородянка",
    "name:en": "Borodianka"
  },
  {
    "id": 247,
    "lat": 48.24,
    "lon": 28.277,
    "name:uk": "Ямпіль",
    "name:en": "Yampil"
  },
  {
    "id": 248,
    "lat": 44.963,
    "lon": 35.238,
    "name:uk": "Коктебель",
    "name:en": "Koktebel"
  },
  {
    "id": 249,
    "lat": 49.66,
    "lon": 25.776,
    "name:uk": "Збараж",
    "name:en": "Zbarazh"
  },
  {
    "id": 250,
    "lat": 50.916,
    "lon": 31.116,
    "name:uk": "Козелець",
    "name:en": "Kozelets"
  },
  {
    "id": 251,
    "lat": 45.429,
    "lon": 35.822,
    "name:uk": "Щолкіне",
    "name:en": "Shchyolkino"
  },
  {
    "id": 252,
    "lat": 45.297,
    "lon": 35.775,
    "name:uk": "Леніне",
    "name:en": "Lenino"
  },
  {
    "id": 253,
    "lat": 45.376,
    "lon": 36.291,
    "name:uk": "Багерове",
    "name:en": "Bagerovo"
  },
  {
    "id": 254,
    "lat": 48.802,
    "lon": 26.04,
    "name:uk": "Борщів",
    "name:en": "Borshchiv"
  },
  {
    "id": 255,
    "lat": 49.445,
    "lon": 24.938,
    "name:uk": "Бережани",
    "name:en": "Berezhany"
  },
  {
    "id": 256,
    "lat": 49.063,
    "lon": 25.389,
    "name:uk": "Бучач",
    "name:en": "Buchach"
  },
  {
    "id": 257,
    "lat": 48.64,
    "lon": 25.735,
    "name:uk": "Заліщики",
    "name:en": "Zalischyky"
  },
  {
    "id": 258,
    "lat": 49.664,
    "lon": 25.138,
    "name:uk": "Зборів",
    "name:en": "Zboriv"
  },
  {
    "id": 259,
    "lat": 50.096,
    "lon": 25.726,
    "name:uk": "Кременець",
    "name:en": "Kremenets"
  },
  {
    "id": 260,
    "lat": 49.873,
    "lon": 26.078,
    "name:uk": "Ланівці",
    "name:en": "Lanivtsi"
  },
  {
    "id": 261,
    "lat": 49.09,
    "lon": 25.171,
    "name:uk": "Монастириська",
    "name:en": "Monastyryska"
  },
  {
    "id": 262,
    "lat": 49.268,
    "lon": 25.136,
    "name:uk": "Підгайці",
    "name:en": "Pidhaitsi"
  },
  {
    "id": 263,
    "lat": 50.001,
    "lon": 25.511,
    "name:uk": "Почаїв",
    "name:en": "Pochaiv"
  },
  {
    "id": 264,
    "lat": 49.424,
    "lon": 25.977,
    "name:uk": "Скалат",
    "name:en": "Skalat"
  },
  {
    "id": 265,
    "lat": 49.296,
    "lon": 25.692,
    "name:uk": "Теребовля",
    "name:en": "Terebovlia"
  },
  {
    "id": 266,
    "lat": 49.212,
    "lon": 25.916,
    "name:uk": "Хоростків",
    "name:en": "Khorostkiv"
  },
  {
    "id": 267,
    "lat": 49.016,
    "lon": 25.792,
    "name:uk": "Чортків",
    "name:en": "Chortkiv"
  },
  {
    "id": 268,
    "lat": 50.118,
    "lon": 26.118,
    "name:uk": "Шумськ",
    "name:en": "Shumsk"
  },
  {
    "id": 269,
    "lat": 49.066,
    "lon": 23.859,
    "name:uk": "Болехів",
    "name:en": "Bolekhiv"
  },
  {
    "id": 270,
    "lat": 49.251,
    "lon": 24.634,
    "name:uk": "Бурштин",
    "name:en": "Burshtyn"
  },
  {
    "id": 271,
    "lat": 49.123,
    "lon": 24.729,
    "name:uk": "Галич",
    "name:en": "Halych"
  },
  {
    "id": 272,
    "lat": 48.672,
    "lon": 25.495,
    "name:uk": "Городенка",
    "name:en": "Horodenka"
  },
  {
    "id": 273,
    "lat": 48.978,
    "lon": 23.978,
    "name:uk": "Долина",
    "name:en": "Dolyna"
  },
  {
    "id": 274,
    "lat": 49.028,
    "lon": 24.361,
    "name:uk": "Калуш",
    "name:en": "Kalush"
  },
  {
    "id": 275,
    "lat": 48.315,
    "lon": 25.098,
    "name:uk": "Косів",
    "name:en": "Kosiv"
  },
  {
    "id": 276,
    "lat": 48.633,
    "lon": 24.568,
    "name:uk": "Надвірна",
    "name:en": "Nadvirna"
  },
  {
    "id": 277,
    "lat": 49.409,
    "lon": 24.61,
    "name:uk": "Рогатин",
    "name:en": "Rohatyn"
  },
  {
    "id": 278,
    "lat": 48.452,
    "lon": 25.551,
    "name:uk": "Снятин",
    "name:en": "Sniatyn"
  },
  {
    "id": 279,
    "lat": 48.866,
    "lon": 25.001,
    "name:uk": "Тлумач",
    "name:en": "Tlumach"
  },
  {
    "id": 280,
    "lat": 50.548,
    "lon": 30.22,
    "name:uk": "Буча",
    "name:en": "Bucha"
  },
  {
    "id": 281,
    "lat": 49.535,
    "lon": 26.212,
    "name:uk": "Волочиськ",
    "name:en": "Volochysk"
  },
  {
    "id": 282,
    "lat": 49.165,
    "lon": 26.586,
    "name:uk": "Городок",
    "name:en": "Horodok"
  },
  {
    "id": 283,
    "lat": 49.268,
    "lon": 27.432,
    "name:uk": "Деражня",
    "name:en": "Derazhnia"
  },
  {
    "id": 284,
    "lat": 48.886,
    "lon": 26.847,
    "name:uk": "Дунаївці",
    "name:en": "Dunaivtsi"
  },
  {
    "id": 285,
    "lat": 50.119,
    "lon": 26.82,
    "name:uk": "Ізяслав",
    "name:en": "Iziaslav"
  },
  {
    "id": 286,
    "lat": 49.654,
    "lon": 26.97,
    "name:uk": "Красилів",
    "name:en": "Krasyliv"
  },
  {
    "id": 287,
    "lat": 50.333,
    "lon": 26.649,
    "name:uk": "Нетішин",
    "name:en": "Netishyn"
  },
  {
    "id": 288,
    "lat": 50.296,
    "lon": 26.865,
    "name:uk": "Славута",
    "name:en": "Slavuta"
  },
  {
    "id": 289,
    "lat": 50.18,
    "lon": 27.065,
    "name:uk": "Шепетівка",
    "name:en": "Shepetivka"
  },
  {
    "id": 290,
    "lat": 50.382,
    "lon": 24.012,
    "name:uk": "Белз",
    "name:en": "Belz"
  },
  {
    "id": 291,
    "lat": 49.637,
    "lon": 24.297,
    "name:uk": "Бібрка",
    "name:en": "Bibrka"
  },
  {
    "id": 292,
    "lat": 49.282,
    "lon": 23.413,
    "name:uk": "Борислав",
    "name:en": "Boryslav"
  },
  {
    "id": 293,
    "lat": 50.083,
    "lon": 25.143,
    "name:uk": "Броди",
    "name:en": "Brody"
  },
  {
    "id": 294,
    "lat": 49.965,
    "lon": 24.608,
    "name:uk": "Буськ",
    "name:en": "Busk"
  },
  {
    "id": 295,
    "lat": 49.816,
    "lon": 24.138,
    "name:uk": "Винники",
    "name:en": "Vynnyky"
  },
  {
    "id": 296,
    "lat": 49.822,
    "lon": 24.516,
    "name:uk": "Глиняни",
    "name:en": "Hlyniany"
  },
  {
    "id": 297,
    "lat": 49.351,
    "lon": 23.506,
    "name:uk": "Дрогобич",
    "name:en": "Drohobych"
  },
  {
    "id": 298,
    "lat": 49.902,
    "lon": 24.087,
    "name:uk": "Дубляни",
    "name:en": "Dubliany"
  },
  {
    "id": 299,
    "lat": 49.383,
    "lon": 24.142,
    "name:uk": "Жидачів",
    "name:en": "Zhydachiv"
  },
  {
    "id": 300,
    "lat": 50.104,
    "lon": 24.345,
    "name:uk": "Кам’янка-Бузька",
    "name:en": "Kamianka-Buzka"
  },
  {
    "id": 301,
    "lat": 49.626,
    "lon": 23.696,
    "name:uk": "Комарно",
    "name:en": "Komarno"
  },
  {
    "id": 302,
    "lat": 51.325,
    "lon": 28.802,
    "name:uk": "Овруч",
    "name:en": "Ovruch"
  },
  {
    "id": 303,
    "lat": 47.567,
    "lon": 31.333,
    "name:uk": "Вознесенськ",
    "name:en": "Voznesensk"
  },
  {
    "id": 304,
    "lat": 49.469,
    "lon": 24.138,
    "name:uk": "Новий Розділ",
    "name:en": "Novyi Rozdil"
  },
  {
    "id": 305,
    "lat": 48.055,
    "lon": 24.205,
    "name:uk": "Рахів",
    "name:en": "Rakhiv"
  },
  {
    "id": 306,
    "lat": 49.872,
    "lon": 36.728,
    "name:uk": "Кочеток",
    "name:en": "Kochetok"
  },
  {
    "id": 307,
    "lat": 44.848,
    "lon": 34.971,
    "name:uk": "Судак",
    "name:en": "Sudak"
  },
  {
    "id": 308,
    "lat": 49.571,
    "lon": 22.785,
    "name:uk": "Добромиль",
    "name:en": "Dobromyl"
  },
  {
    "id": 309,
    "lat": 50.937,
    "lon": 31.581,
    "name:uk": "Носівка",
    "name:en": "Nosivka"
  },
  {
    "id": 310,
    "lat": 51.078,
    "lon": 34.78,
    "name:uk": "Хотінь",
    "name:en": "Khotin"
  },
  {
    "id": 311,
    "lat": 50.279,
    "lon": 35.982,
    "name:uk": "Золочів",
    "name:en": "Zolochiv"
  },
  {
    "id": 312,
    "lat": 52.188,
    "lon": 34.03,
    "name:uk": "Середина-Буда",
    "name:en": "Seredyna-Buda"
  },
  {
    "id": 313,
    "lat": 52.178,
    "lon": 32.577,
    "name:uk": "Семенівка",
    "name:en": "Semenivka"
  },
  {
    "id": 314,
    "lat": 52.047,
    "lon": 33.942,
    "name:uk": "Дружба",
    "name:en": "Druzhba"
  },
  {
    "id": 315,
    "lat": 52.004,
    "lon": 33.277,
    "name:uk": "Новгород-Сіверський",
    "name:en": "Novhorod-Siverskyi"
  },
  {
    "id": 316,
    "lat": 51.948,
    "lon": 33.932,
    "name:uk": "Свеса",
    "name:en": "Svesa"
  },
  {
    "id": 317,
    "lat": 51.948,
    "lon": 33.778,
    "name:uk": "Ямпіль",
    "name:en": "Yampil"
  },
  {
    "id": 318,
    "lat": 51.891,
    "lon": 31.595,
    "name:uk": "Городня",
    "name:en": "Horodnia"
  },
  {
    "id": 319,
    "lat": 51.864,
    "lon": 33.472,
    "name:uk": "Шостка",
    "name:en": "Shostka"
  },
  {
    "id": 320,
    "lat": 51.818,
    "lon": 31.944,
    "name:uk": "Сновськ",
    "name:en": "Snovsk"
  },
  {
    "id": 321,
    "lat": 51.803,
    "lon": 31.093,
    "name:uk": "Ріпки",
    "name:en": "Ripky"
  },
  {
    "id": 322,
    "lat": 51.777,
    "lon": 33.466,
    "name:uk": "Вороніж",
    "name:en": "Voronizh"
  },
  {
    "id": 323,
    "lat": 51.774,
    "lon": 32.251,
    "name:uk": "Корюківка",
    "name:en": "Koriukivka"
  },
  {
    "id": 324,
    "lat": 51.763,
    "lon": 25.504,
    "name:uk": "Любешів",
    "name:en": "Liubeshiv"
  },
  {
    "id": 325,
    "lat": 51.678,
    "lon": 33.909,
    "name:uk": "Глухів",
    "name:en": "Hlukhiv"
  },
  {
    "id": 326,
    "lat": 51.671,
    "lon": 24.524,
    "name:uk": "Ратне",
    "name:en": "Ratne"
  },
  {
    "id": 327,
    "lat": 51.642,
    "lon": 31.562,
    "name:uk": "Седнів",
    "name:en": "Sedniv"
  },
  {
    "id": 328,
    "lat": 51.631,
    "lon": 24.255,
    "name:uk": "Заболоття",
    "name:en": "Zabolottia"
  },
  {
    "id": 329,
    "lat": 51.627,
    "lon": 24.961,
    "name:uk": "Камінь-Каширський",
    "name:en": "Kamin-Kashyrskyi"
  },
  {
    "id": 330,
    "lat": 51.577,
    "lon": 31.79,
    "name:uk": "Березна",
    "name:en": "Berezna"
  },
  {
    "id": 331,
    "lat": 51.57,
    "lon": 26.566,
    "name:uk": "Дубровиця",
    "name:en": "Dubrovytsia"
  },
  {
    "id": 332,
    "lat": 51.554,
    "lon": 33.387,
    "name:uk": "Кролевець",
    "name:en": "Krolevets"
  },
  {
    "id": 333,
    "lat": 51.52,
    "lon": 30.756,
    "name:uk": "Славутич",
    "name:en": "Slavutych"
  },
  {
    "id": 334,
    "lat": 51.522,
    "lon": 32.216,
    "name:uk": "Мена",
    "name:en": "Mena"
  },
  {
    "id": 335,
    "lat": 51.524,
    "lon": 32.502,
    "name:uk": "Сосниця",
    "name:en": "Sosnytsia"
  },
  {
    "id": 336,
    "lat": 51.442,
    "lon": 24.438,
    "name:uk": "Стара Вижівка",
    "name:en": "Stara Vyzhivka"
  },
  {
    "id": 337,
    "lat": 51.419,
    "lon": 26.139,
    "name:uk": "Володимирець",
    "name:en": "Volodymyrets"
  },
  {
    "id": 338,
    "lat": 51.373,
    "lon": 31.645,
    "name:uk": "Куликівка",
    "name:en": "Kulykivka"
  },
  {
    "id": 339,
    "lat": 51.336,
    "lon": 24.078,
    "name:uk": "Головне",
    "name:en": "Holovne"
  },
  {
    "id": 340,
    "lat": 51.335,
    "lon": 33.871,
    "name:uk": "Путивль",
    "name:en": "Putyvl"
  },
  {
    "id": 341,
    "lat": 51.341,
    "lon": 32.877,
    "name:uk": "Батурин",
    "name:en": "Baturyn"
  },
  {
    "id": 342,
    "lat": 51.335,
    "lon": 26.617,
    "name:uk": "Сарни",
    "name:en": "Sarny"
  },
  {
    "id": 343,
    "lat": 51.312,
    "lon": 26.888,
    "name:uk": "Клесів",
    "name:en": "Klesiv"
  },
  {
    "id": 344,
    "lat": 51.307,
    "lon": 26,
    "name:uk": "Рафалівка",
    "name:en": "Rafalivka"
  },
  {
    "id": 345,
    "lat": 51.302,
    "lon": 27.068,
    "name:uk": "Томашгород",
    "name:en": "Tomashhorod"
  },
  {
    "id": 346,
    "lat": 51.299,
    "lon": 30.927,
    "name:uk": "Гончарівське",
    "name:en": "Honcharivske"
  },
  {
    "id": 347,
    "lat": 51.29,
    "lon": 25.537,
    "name:uk": "Маневичі",
    "name:en": "Manevychi"
  },
  {
    "id": 348,
    "lat": 51.265,
    "lon": 27.226,
    "name:uk": "Рокитне",
    "name:en": "Rokytne"
  },
  {
    "id": 349,
    "lat": 51.229,
    "lon": 24.344,
    "name:uk": "Луків",
    "name:en": "Lukiv"
  },
  {
    "id": 350,
    "lat": 51.239,
    "lon": 33.206,
    "name:uk": "Конотоп",
    "name:en": "Konotop"
  },
  {
    "id": 351,
    "lat": 51.222,
    "lon": 27.648,
    "name:uk": "Олевськ",
    "name:en": "Olevsk"
  },
  {
    "id": 352,
    "lat": 51.203,
    "lon": 29.091,
    "name:uk": "Народичі",
    "name:en": "Narodychi"
  },
  {
    "id": 353,
    "lat": 51.196,
    "lon": 33.828,
    "name:uk": "Буринь",
    "name:en": "Buryn"
  },
  {
    "id": 354,
    "lat": 51.186,
    "lon": 24.619,
    "name:uk": "Люблинець",
    "name:en": "Liublynets"
  },
  {
    "id": 355,
    "lat": 51.18,
    "lon": 32.816,
    "name:uk": "Бахмач",
    "name:en": "Bakhmach"
  },
  {
    "id": 356,
    "lat": 51.172,
    "lon": 34.224,
    "name:uk": "Ворожба",
    "name:en": "Vorozhba"
  },
  {
    "id": 357,
    "lat": 51.146,
    "lon": 34.312,
    "name:uk": "Білопілля",
    "name:en": "Bilopillia"
  },
  {
    "id": 358,
    "lat": 51.133,
    "lon": 26.305,
    "name:uk": "Степань",
    "name:en": "Stepan"
  },
  {
    "id": 359,
    "lat": 51.115,
    "lon": 28.052,
    "name:uk": "Нові Білокоровичі",
    "name:en": "Novi Bilokorovychi"
  },
  {
    "id": 360,
    "lat": 51.096,
    "lon": 25.667,
    "name:uk": "Колки",
    "name:en": "Kolky"
  },
  {
    "id": 361,
    "lat": 51.085,
    "lon": 25.015,
    "name:uk": "Голоби",
    "name:en": "Holoby"
  },
  {
    "id": 362,
    "lat": 51.082,
    "lon": 24.523,
    "name:uk": "Турійськ",
    "name:en": "Turiisk"
  },
  {
    "id": 363,
    "lat": 51.078,
    "lon": 28.397,
    "name:uk": "Лугини",
    "name:en": "Luhyny"
  },
  {
    "id": 364,
    "lat": 51.078,
    "lon": 29.637,
    "name:uk": "Красятичі",
    "name:en": "Krasiatychi"
  },
  {
    "id": 365,
    "lat": 51.068,
    "lon": 28.042,
    "name:uk": "Бучмани",
    "name:en": "Buchmany"
  },
  {
    "id": 366,
    "lat": 51.046,
    "lon": 31.88,
    "name:uk": "Ніжин",
    "name:en": "Nizhyn"
  },
  {
    "id": 367,
    "lat": 50.994,
    "lon": 33.983,
    "name:uk": "Терни",
    "name:en": "Terny"
  },
  {
    "id": 368,
    "lat": 50.974,
    "lon": 34.293,
    "name:uk": "Улянівка",
    "name:en": "Ulianivka"
  },
  {
    "id": 369,
    "lat": 50.95,
    "lon": 30.878,
    "name:uk": "Остер",
    "name:en": "Oster"
  },
  {
    "id": 370,
    "lat": 50.949,
    "lon": 28.641,
    "name:uk": "Коростень",
    "name:en": "Korosten"
  },
  {
    "id": 371,
    "lat": 50.941,
    "lon": 34.642,
    "name:uk": "Степанівка",
    "name:en": "Stepanivka"
  },
  {
    "id": 372,
    "lat": 50.933,
    "lon": 29.904,
    "name:uk": "Іванків",
    "name:en": "Ivankiv"
  },
  {
    "id": 373,
    "lat": 50.93,
    "lon": 25.305,
    "name:uk": "Дубище",
    "name:en": "Dubysche"
  },
  {
    "id": 374,
    "lat": 50.924,
    "lon": 30.772,
    "name:uk": "Десна",
    "name:en": "Desna"
  },
  {
    "id": 375,
    "lat": 50.916,
    "lon": 25.271,
    "name:uk": "Рожище",
    "name:en": "Rozhyshche"
  },
  {
    "id": 376,
    "lat": 50.882,
    "lon": 26.451,
    "name:uk": "Костопіль",
    "name:en": "Kostopil"
  },
  {
    "id": 377,
    "lat": 50.872,
    "lon": 27.807,
    "name:uk": "Ємільчине",
    "name:en": "Yemilchyne"
  },
  {
    "id": 378,
    "lat": 50.862,
    "lon": 32.391,
    "name:uk": "Ічня",
    "name:en": "Ichnia"
  },
  {
    "id": 379,
    "lat": 50.859,
    "lon": 35.27,
    "name:uk": "Угроїди",
    "name:en": "Uhroidy"
  },
  {
    "id": 380,
    "lat": 50.835,
    "lon": 33.878,
    "name:uk": "Недригайлів",
    "name:en": "Nedryhailiv"
  },
  {
    "id": 381,
    "lat": 50.831,
    "lon": 33.134,
    "name:uk": "Талалаївка",
    "name:en": "Talalaivka"
  },
  {
    "id": 382,
    "lat": 50.829,
    "lon": 25.884,
    "name:uk": "Цумань",
    "name:en": "Tsuman"
  },
  {
    "id": 383,
    "lat": 50.826,
    "lon": 28.946,
    "name:uk": "Чоповичі",
    "name:en": "Chopovychi"
  },
  {
    "id": 384,
    "lat": 50.833,
    "lon": 25.464,
    "name:uk": "Ківерці",
    "name:en": "Kivertsi"
  },
  {
    "id": 385,
    "lat": 50.833,
    "lon": 25.27,
    "name:uk": "Рокині",
    "name:en": "Rokyni"
  },
  {
    "id": 386,
    "lat": 50.826,
    "lon": 26.995,
    "name:uk": "Соснове",
    "name:en": "Sosnove"
  },
  {
    "id": 387,
    "lat": 50.806,
    "lon": 27.314,
    "name:uk": "Городниця",
    "name:en": "Horodnytsia"
  },
  {
    "id": 388,
    "lat": 50.771,
    "lon": 35.256,
    "name:uk": "Краснопілля",
    "name:en": "Krasnopillia"
  },
  {
    "id": 389,
    "lat": 50.768,
    "lon": 29.264,
    "name:uk": "Малин",
    "name:en": "Malyn"
  },
  {
    "id": 390,
    "lat": 50.769,
    "lon": 25.01,
    "name:uk": "Торчин",
    "name:en": "Torchyn"
  },
  {
    "id": 391,
    "lat": 50.751,
    "lon": 26.115,
    "name:uk": "Оржів",
    "name:en": "Orzhiv"
  },
  {
    "id": 392,
    "lat": 50.75,
    "lon": 28.721,
    "name:uk": "Іршанськ",
    "name:en": "Irshansk"
  },
  {
    "id": 393,
    "lat": 50.741,
    "lon": 31.386,
    "name:uk": "Бобровиця",
    "name:en": "Bobrovytsia"
  },
  {
    "id": 394,
    "lat": 50.743,
    "lon": 29.349,
    "name:uk": "Гранітне",
    "name:en": "Hranitne"
  },
  {
    "id": 395,
    "lat": 50.746,
    "lon": 26.006,
    "name:uk": "Клевань",
    "name:en": "Klevan"
  },
  {
    "id": 396,
    "lat": 50.742,
    "lon": 33.487,
    "name:uk": "Ромни",
    "name:en": "Romny"
  },
  {
    "id": 397,
    "lat": 50.738,
    "lon": 24.648,
    "name:uk": "Локачі",
    "name:en": "Lokachi"
  },
  {
    "id": 398,
    "lat": 50.725,
    "lon": 25.811,
    "name:uk": "Олика",
    "name:en": "Olyka"
  },
  {
    "id": 399,
    "lat": 50.693,
    "lon": 28.639,
    "name:uk": "Нова Борова",
    "name:en": "Nova Borova"
  },
  {
    "id": 400,
    "lat": 50.696,
    "lon": 29.593,
    "name:uk": "Пісківка",
    "name:en": "Piskivka"
  },
  {
    "id": 401,
    "lat": 50.661,
    "lon": 32.917,
    "name:uk": "Срібне",
    "name:en": "Sribne"
  },
  {
    "id": 402,
    "lat": 50.662,
    "lon": 24.247,
    "name:uk": "Благодатне",
    "name:en": "Blahodatne"
  },
  {
    "id": 403,
    "lat": 50.595,
    "lon": 28.445,
    "name:uk": "Хорошів",
    "name:en": "Khoroshiv"
  },
  {
    "id": 404,
    "lat": 50.604,
    "lon": 26.682,
    "name:uk": "Гоща",
    "name:en": "Hoscha"
  },
  {
    "id": 405,
    "lat": 50.591,
    "lon": 30.901,
    "name:uk": "Велика Димерка",
    "name:en": "Velyka Dymerka"
  },
  {
    "id": 406,
    "lat": 50.588,
    "lon": 30.259,
    "name:uk": "Гостомель",
    "name:en": "Hostomel"
  },
  {
    "id": 407,
    "lat": 50.584,
    "lon": 30.009,
    "name:uk": "Клавдієво-Тарасове",
    "name:en": "Klavdiievo-Tarasove"
  },
  {
    "id": 408,
    "lat": 50.568,
    "lon": 30.101,
    "name:uk": "Немішаєве",
    "name:en": "Nemishaieve"
  },
  {
    "id": 409,
    "lat": 50.558,
    "lon": 26.262,
    "name:uk": "Квасилів",
    "name:en": "Kvasyliv"
  },
  {
    "id": 410,
    "lat": 50.563,
    "lon": 33.799,
    "name:uk": "Липова Долина",
    "name:en": "Lypova Dolyna"
  },
  {
    "id": 411,
    "lat": 50.545,
    "lon": 30.156,
    "name:uk": "Ворзель",
    "name:en": "Vorzel"
  },
  {
    "id": 412,
    "lat": 50.526,
    "lon": 25.027,
    "name:uk": "Сенкевичівка",
    "name:en": "Senkevychivka"
  },
  {
    "id": 413,
    "lat": 50.513,
    "lon": 32.587,
    "name:uk": "Ладан",
    "name:en": "Ladan"
  },
  {
    "id": 414,
    "lat": 50.511,
    "lon": 25.612,
    "name:uk": "Млинів",
    "name:en": "Mlyniv"
  },
  {
    "id": 415,
    "lat": 50.498,
    "lon": 24.76,
    "name:uk": "Горохів",
    "name:en": "Horokhiv"
  },
  {
    "id": 416,
    "lat": 50.496,
    "lon": 29.228,
    "name:uk": "Радомишль",
    "name:en": "Radomyshl"
  },
  {
    "id": 417,
    "lat": 50.518,
    "lon": 26.243,
    "name:uk": "Здолбунів",
    "name:en": "Zdolbuniv"
  },
  {
    "id": 418,
    "lat": 50.498,
    "lon": 32.722,
    "name:uk": "Варва",
    "name:en": "Varva"
  },
  {
    "id": 419,
    "lat": 50.495,
    "lon": 31.769,
    "name:uk": "Згурівка",
    "name:en": "Zghurivka"
  },
  {
    "id": 420,
    "lat": 50.49,
    "lon": 30.333,
    "name:uk": "Коцюбинське",
    "name:en": "Kotsiubynske"
  },
  {
    "id": 421,
    "lat": 50.48,
    "lon": 34.964,
    "name:uk": "Тростянець",
    "name:en": "Trostianets"
  },
  {
    "id": 422,
    "lat": 50.469,
    "lon": 28.27,
    "name:uk": "Пулини",
    "name:en": "Pulyny"
  },
  {
    "id": 423,
    "lat": 50.452,
    "lon": 28.665,
    "name:uk": "Черняхів",
    "name:en": "Cherniakhiv"
  },
  {
    "id": 424,
    "lat": 50.45,
    "lon": 24.798,
    "name:uk": "Мар’янівка",
    "name:en": "Marianivka"
  },
  {
    "id": 425,
    "lat": 50.427,
    "lon": 25.336,
    "name:uk": "Демидівка",
    "name:en": "Demydivka"
  },
  {
    "id": 426,
    "lat": 50.425,
    "lon": 35.483,
    "name:uk": "Велика Писарівка",
    "name:en": "Velyka Pysarivka"
  },
  {
    "id": 427,
    "lat": 50.418,
    "lon": 25.745,
    "name:uk": "Дубно",
    "name:en": "Dubno"
  },
  {
    "id": 428,
    "lat": 50.398,
    "lon": 26.141,
    "name:uk": "Мізоч",
    "name:en": "Mizoch"
  },
  {
    "id": 429,
    "lat": 50.396,
    "lon": 33.392,
    "name:uk": "Заводське",
    "name:en": "Zavodske"
  },
  {
    "id": 430,
    "lat": 50.371,
    "lon": 27.985,
    "name:uk": "Довбиш",
    "name:en": "Dovbysh"
  },
  {
    "id": 431,
    "lat": 50.367,
    "lon": 23.747,
    "name:uk": "Угнів",
    "name:en": "Uhniv"
  },
  {
    "id": 432,
    "lat": 50.358,
    "lon": 25.12,
    "name:uk": "Берестечко",
    "name:en": "Berestechko"
  },
  {
    "id": 433,
    "lat": 50.364,
    "lon": 31.325,
    "name:uk": "Баришівка",
    "name:en": "Baryshivka"
  },
  {
    "id": 434,
    "lat": 50.359,
    "lon": 33.274,
    "name:uk": "Лохвиця",
    "name:en": "Lokhvytsia"
  },
  {
    "id": 435,
    "lat": 50.329,
    "lon": 24.201,
    "name:uk": "Гірник",
    "name:en": "Hirnyk"
  },
  {
    "id": 436,
    "lat": 50.329,
    "lon": 36.192,
    "name:uk": "Козача Лопань",
    "name:en": "Kozacha Lopan"
  },
  {
    "id": 437,
    "lat": 50.329,
    "lon": 26.52,
    "name:uk": "Острог",
    "name:en": "Ostroh"
  },
  {
    "id": 438,
    "lat": 50.313,
    "lon": 31.468,
    "name:uk": "Березань",
    "name:en": "Berezan"
  },
  {
    "id": 439,
    "lat": 50.311,
    "lon": 34.886,
    "name:uk": "Охтирка",
    "name:en": "Okhtyrka"
  },
  {
    "id": 440,
    "lat": 50.29,
    "lon": 24.256,
    "name:uk": "Соснівка",
    "name:en": "Sosnivka"
  },
  {
    "id": 441,
    "lat": 50.293,
    "lon": 27.666,
    "name:uk": "Баранівка",
    "name:en": "Baranivka"
  },
  {
    "id": 442,
    "lat": 50.275,
    "lon": 31.763,
    "name:uk": "Яготин",
    "name:en": "Yahotyn"
  },
  {
    "id": 443,
    "lat": 50.283,
    "lon": 29.518,
    "name:uk": "Брусилів",
    "name:en": "Brusyliv"
  },
  {
    "id": 444,
    "lat": 50.292,
    "lon": 36.937,
    "name:uk": "Вовчанськ",
    "name:en": "Vovchansk"
  },
  {
    "id": 445,
    "lat": 50.28,
    "lon": 24.639,
    "name:uk": "Радехів",
    "name:en": "Radekhiv"
  },
  {
    "id": 446,
    "lat": 50.273,
    "lon": 32.938,
    "name:uk": "Чорнухи",
    "name:en": "Chornukhy"
  },
  {
    "id": 447,
    "lat": 50.259,
    "lon": 30.305,
    "name:uk": "Глеваха",
    "name:en": "Hlevakha"
  },
  {
    "id": 448,
    "lat": 50.247,
    "lon": 36.937,
    "name:uk": "Вільча",
    "name:en": "Vilcha"
  },
  {
    "id": 449,
    "lat": 50.236,
    "lon": 32.501,
    "name:uk": "Пирятин",
    "name:en": "Pyriatyn"
  },
  {
    "id": 450,
    "lat": 50.24,
    "lon": 24.138,
    "name:uk": "Великі Мости",
    "name:en": "Velyki Mosty"
  },
  {
    "id": 451,
    "lat": 50.24,
    "lon": 36.17,
    "name:uk": "Прудянка",
    "name:en": "Prudianka"
  },
  {
    "id": 452,
    "lat": 50.238,
    "lon": 25.762,
    "name:uk": "Смига",
    "name:en": "Smyha"
  },
  {
    "id": 453,
    "lat": 50.23,
    "lon": 23.624,
    "name:uk": "Рава-Руська",
    "name:en": "Rava-Ruska"
  },
  {
    "id": 454,
    "lat": 50.225,
    "lon": 30.226,
    "name:uk": "Калинівка",
    "name:en": "Kalynivka"
  },
  {
    "id": 455,
    "lat": 50.22,
    "lon": 24.844,
    "name:uk": "Лопатин",
    "name:en": "Lopatyn"
  },
  {
    "id": 456,
    "lat": 50.21,
    "lon": 34.357,
    "name:uk": "Зіньків",
    "name:en": "Zinkiv"
  },
  {
    "id": 457,
    "lat": 50.209,
    "lon": 36.157,
    "name:uk": "Слатине",
    "name:en": "Slatyne"
  },
  {
    "id": 458,
    "lat": 50.205,
    "lon": 24.385,
    "name:uk": "Добротвір",
    "name:en": "Dobrotvir"
  },
  {
    "id": 459,
    "lat": 50.206,
    "lon": 28.691,
    "name:uk": "Новогуйвинське",
    "name:en": "Novohuivynske"
  },
  {
    "id": 460,
    "lat": 50.204,
    "lon": 37.114,
    "name:uk": "Білий Колодязь",
    "name:en": "Bilyi Kolodiaz"
  },
  {
    "id": 461,
    "lat": 50.191,
    "lon": 27.561,
    "name:uk": "Понінка",
    "name:en": "Poninka"
  },
  {
    "id": 462,
    "lat": 50.183,
    "lon": 33.679,
    "name:uk": "Комишня",
    "name:en": "Komyshnia"
  },
  {
    "id": 463,
    "lat": 50.18,
    "lon": 28.735,
    "name:uk": "Озерне",
    "name:en": "Ozerne"
  },
  {
    "id": 464,
    "lat": 50.178,
    "lon": 30.102,
    "name:uk": "Борова",
    "name:en": "Borova"
  },
  {
    "id": 465,
    "lat": 50.173,
    "lon": 30.321,
    "name:uk": "Васильків",
    "name:en": "Vasylkiv"
  },
  {
    "id": 466,
    "lat": 50.161,
    "lon": 37.351,
    "name:uk": "Приколотне",
    "name:en": "Prykolotne"
  },
  {
    "id": 467,
    "lat": 50.162,
    "lon": 29.07,
    "name:uk": "Новоівницьке",
    "name:en": "Novoivnytske"
  },
  {
    "id": 468,
    "lat": 50.146,
    "lon": 27.921,
    "name:uk": "Романів",
    "name:en": "Romaniv"
  },
  {
    "id": 469,
    "lat": 50.153,
    "lon": 30.742,
    "name:uk": "Українка",
    "name:en": "Ukrainka"
  },
  {
    "id": 470,
    "lat": 50.127,
    "lon": 25.248,
    "name:uk": "Радивилів",
    "name:en": "Radyvyliv"
  },
  {
    "id": 471,
    "lat": 50.132,
    "lon": 35.349,
    "name:uk": "Гути",
    "name:en": "Huty"
  },
  {
    "id": 472,
    "lat": 50.11,
    "lon": 30.626,
    "name:uk": "Обухів",
    "name:en": "Obukhiv"
  },
  {
    "id": 473,
    "lat": 50.109,
    "lon": 27.697,
    "name:uk": "Миропіль",
    "name:en": "Myropil"
  },
  {
    "id": 474,
    "lat": 50.109,
    "lon": 23.699,
    "name:uk": "Магерів",
    "name:en": "Maheriv"
  },
  {
    "id": 475,
    "lat": 50.107,
    "lon": 36.12,
    "name:uk": "Дергачі",
    "name:en": "Derhachi"
  },
  {
    "id": 476,
    "lat": 50.104,
    "lon": 23.436,
    "name:uk": "Немирів",
    "name:en": "Nemyriv"
  },
  {
    "id": 477,
    "lat": 50.096,
    "lon": 29.54,
    "name:uk": "Корнин",
    "name:en": "Kornyn"
  },
  {
    "id": 478,
    "lat": 50.079,
    "lon": 29.916,
    "name:uk": "Фастів",
    "name:en": "Fastiv"
  },
  {
    "id": 479,
    "lat": 50.064,
    "lon": 31.444,
    "name:uk": "Переяслав",
    "name:en": "Pereiaslav"
  },
  {
    "id": 480,
    "lat": 50.062,
    "lon": 34.749,
    "name:uk": "Котельва",
    "name:en": "Kotelva"
  },
  {
    "id": 481,
    "lat": 50.062,
    "lon": 35.164,
    "name:uk": "Краснокутськ",
    "name:en": "Krasnokutsk"
  },
  {
    "id": 482,
    "lat": 50.054,
    "lon": 37.389,
    "name:uk": "Великий Бурлук",
    "name:en": "Velykyi Burluk"
  },
  {
    "id": 483,
    "lat": 50.052,
    "lon": 35.897,
    "name:uk": "Вільшани",
    "name:en": "Vilshany"
  },
  {
    "id": 484,
    "lat": 50.056,
    "lon": 36.17,
    "name:uk": "Мала Данилівка",
    "name:en": "Mala Danylivka"
  },
  {
    "id": 485,
    "lat": 50.052,
    "lon": 28.115,
    "name:uk": "Чуднів",
    "name:en": "Chudniv"
  },
  {
    "id": 486,
    "lat": 50.03,
    "lon": 29.022,
    "name:uk": "Андрушівка",
    "name:en": "Andrushivka"
  },
  {
    "id": 487,
    "lat": 50.022,
    "lon": 32.725,
    "name:uk": "Новооржицьке",
    "name:en": "Novoorzhytske"
  },
  {
    "id": 488,
    "lat": 50.018,
    "lon": 35.44,
    "name:uk": "Шарівка",
    "name:en": "Sharivka"
  },
  {
    "id": 489,
    "lat": 50.016,
    "lon": 35.991,
    "name:uk": "Пересічне",
    "name:en": "Peresichne"
  },
  {
    "id": 490,
    "lat": 50.001,
    "lon": 26.416,
    "name:uk": "Білогір’я",
    "name:en": "Bilohiria"
  },
  {
    "id": 491,
    "lat": 49.984,
    "lon": 36.068,
    "name:uk": "Солоницівка",
    "name:en": "Solonytsivka"
  },
  {
    "id": 492,
    "lat": 49.991,
    "lon": 33.326,
    "name:uk": "Ромодан",
    "name:en": "Romodan"
  },
  {
    "id": 493,
    "lat": 49.971,
    "lon": 27.216,
    "name:uk": "Гриців",
    "name:en": "Hrytsiv"
  },
  {
    "id": 494,
    "lat": 49.979,
    "lon": 35.851,
    "name:uk": "Манченки",
    "name:en": "Manchenky"
  },
  {
    "id": 495,
    "lat": 49.98,
    "lon": 24.077,
    "name:uk": "Куликів",
    "name:en": "Kulykiv"
  },
  {
    "id": 496,
    "lat": 49.975,
    "lon": 35.756,
    "name:uk": "Старий Мерчик",
    "name:en": "Staryi Merchyk"
  },
  {
    "id": 497,
    "lat": 49.969,
    "lon": 29.761,
    "name:uk": "Кожанка",
    "name:en": "Kozhanka"
  },
  {
    "id": 498,
    "lat": 49.968,
    "lon": 31.041,
    "name:uk": "Ржищів",
    "name:en": "Rzhyschiv"
  },
  {
    "id": 499,
    "lat": 49.965,
    "lon": 33.611,
    "name:uk": "Миргород",
    "name:en": "Myrhorod"
  },
  {
    "id": 500,
    "lat": 49.964,
    "lon": 24.894,
    "name:uk": "Олесько",
    "name:en": "Olesko"
  },
  {
    "id": 501,
    "lat": 49.962,
    "lon": 36.123,
    "name:uk": "Пісочин",
    "name:en": "Pisochyn"
  },
  {
    "id": 502,
    "lat": 49.956,
    "lon": 26.227,
    "name:uk": "Ямпіль",
    "name:en": "Yampil"
  },
  {
    "id": 503,
    "lat": 49.962,
    "lon": 23.16,
    "name:uk": "Краковець",
    "name:en": "Krakovets"
  },
  {
    "id": 504,
    "lat": 49.951,
    "lon": 36.039,
    "name:uk": "Коротич",
    "name:en": "Korotych"
  },
  {
    "id": 505,
    "lat": 49.961,
    "lon": 32.152,
    "name:uk": "Драбів",
    "name:en": "Drabiv"
  },
  {
    "id": 506,
    "lat": 49.953,
    "lon": 30.176,
    "name:uk": "Гребінки",
    "name:en": "Hrebinky"
  },
  {
    "id": 507,
    "lat": 49.949,
    "lon": 23.544,
    "name:uk": "Шкло",
    "name:en": "Shklo"
  },
  {
    "id": 508,
    "lat": 49.945,
    "lon": 29.459,
    "name:uk": "Попільня",
    "name:en": "Popilnia"
  },
  {
    "id": 509,
    "lat": 49.945,
    "lon": 25.318,
    "name:uk": "Підкамінь",
    "name:en": "Pidkamin"
  },
  {
    "id": 510,
    "lat": 49.943,
    "lon": 35.918,
    "name:uk": "Люботин",
    "name:en": "Liubotyn"
  },
  {
    "id": 511,
    "lat": 49.945,
    "lon": 23.388,
    "name:uk": "Яворів",
    "name:en": "Yavoriv"
  },
  {
    "id": 512,
    "lat": 49.931,
    "lon": 23.566,
    "name:uk": "Новояворівськ",
    "name:en": "Novoiavorivsk"
  },
  {
    "id": 513,
    "lat": 49.923,
    "lon": 27.748,
    "name:uk": "Любар",
    "name:en": "Liubar"
  },
  {
    "id": 514,
    "lat": 49.922,
    "lon": 23.731,
    "name:uk": "Івано-Франкове",
    "name:en": "Ivano-Frankove"
  },
  {
    "id": 515,
    "lat": 49.907,
    "lon": 38.286,
    "name:uk": "Троїцьке",
    "name:en": "Troitske"
  },
  {
    "id": 516,
    "lat": 49.917,
    "lon": 24.2,
    "name:uk": "Запитів",
    "name:en": "Zapytiv"
  },
  {
    "id": 517,
    "lat": 49.923,
    "lon": 33.822,
    "name:uk": "Гоголеве",
    "name:en": "Hoholeve"
  },
  {
    "id": 518,
    "lat": 49.915,
    "lon": 35.55,
    "name:uk": "Ков’яги",
    "name:en": "Koviahy"
  },
  {
    "id": 519,
    "lat": 49.916,
    "lon": 36.18,
    "name:uk": "Покотилівка",
    "name:en": "Pokotylivka"
  },
  {
    "id": 520,
    "lat": 49.912,
    "lon": 24.608,
    "name:uk": "Красне",
    "name:en": "Krasne"
  },
  {
    "id": 521,
    "lat": 49.904,
    "lon": 36.067,
    "name:uk": "Березівка",
    "name:en": "Berezivka"
  },
  {
    "id": 522,
    "lat": 49.907,
    "lon": 24.302,
    "name:uk": "Новий Яричів",
    "name:en": "Novyi Yarychiv"
  },
  {
    "id": 523,
    "lat": 49.901,
    "lon": 25.751,
    "name:uk": "Вишнівець",
    "name:en": "Vyshnivets"
  },
  {
    "id": 524,
    "lat": 49.902,
    "lon": 23.946,
    "name:uk": "Брюховичі",
    "name:en": "Briukhovychi"
  },
  {
    "id": 525,
    "lat": 49.9,
    "lon": 36.191,
    "name:uk": "Бабаї",
    "name:en": "Babai"
  },
  {
    "id": 526,
    "lat": 49.894,
    "lon": 28.581,
    "name:uk": "Бердичів",
    "name:en": "Berdychiv"
  },
  {
    "id": 527,
    "lat": 49.891,
    "lon": 36.128,
    "name:uk": "Високий",
    "name:en": "Vysokyi"
  },
  {
    "id": 528,
    "lat": 49.891,
    "lon": 36.023,
    "name:uk": "Буди",
    "name:en": "Budy"
  },
  {
    "id": 529,
    "lat": 49.876,
    "lon": 34.006,
    "name:uk": "Шишаки",
    "name:en": "Shyshaky"
  },
  {
    "id": 530,
    "lat": 49.884,
    "lon": 36.066,
    "name:uk": "Південне",
    "name:en": "Pivdenne"
  },
  {
    "id": 531,
    "lat": 49.87,
    "lon": 36.298,
    "name:uk": "Безлюдівка",
    "name:en": "Bezliudivka"
  },
  {
    "id": 532,
    "lat": 49.865,
    "lon": 36.939,
    "name:uk": "Печеніги",
    "name:en": "Pechenihy"
  },
  {
    "id": 533,
    "lat": 49.858,
    "lon": 36.218,
    "name:uk": "Хорошеве",
    "name:en": "Khorosheve"
  },
  {
    "id": 534,
    "lat": 49.85,
    "lon": 37.682,
    "name:uk": "Дворічна",
    "name:en": "Dvorichna"
  },
  {
    "id": 535,
    "lat": 49.835,
    "lon": 23.88,
    "name:uk": "Рудне",
    "name:en": "Rudne"
  },
  {
    "id": 536,
    "lat": 49.844,
    "lon": 26.415,
    "name:uk": "Теофіполь",
    "name:en": "Teofipol"
  },
  {
    "id": 537,
    "lat": 49.843,
    "lon": 35.313,
    "name:uk": "Коломак",
    "name:en": "Kolomak"
  },
  {
    "id": 538,
    "lat": 49.837,
    "lon": 36.554,
    "name:uk": "Новопокровка",
    "name:en": "Novopokrovka"
  },
  {
    "id": 539,
    "lat": 49.837,
    "lon": 38.742,
    "name:uk": "Лозно-Олександрівка",
    "name:en": "Lozno-Oleksandrivka"
  },
  {
    "id": 540,
    "lat": 49.83,
    "lon": 35.608,
    "name:uk": "Валки",
    "name:en": "Valky"
  },
  {
    "id": 541,
    "lat": 49.835,
    "lon": 36.331,
    "name:uk": "Васищеве",
    "name:en": "Vasyscheve"
  },
  {
    "id": 542,
    "lat": 49.825,
    "lon": 36.506,
    "name:uk": "Введенка",
    "name:en": "Vvedenka"
  },
  {
    "id": 543,
    "lat": 49.828,
    "lon": 30.419,
    "name:uk": "Узин",
    "name:en": "Uzyn"
  },
  {
    "id": 544,
    "lat": 49.822,
    "lon": 34.538,
    "name:uk": "Диканька",
    "name:en": "Dykanka"
  },
  {
    "id": 545,
    "lat": 49.81,
    "lon": 26.864,
    "name:uk": "Антоніни",
    "name:en": "Antoniny"
  },
  {
    "id": 546,
    "lat": 49.8,
    "lon": 36.718,
    "name:uk": "Малинівка",
    "name:en": "Malynivka"
  },
  {
    "id": 547,
    "lat": 49.802,
    "lon": 25.383,
    "name:uk": "Залізці",
    "name:en": "Zaliztsi"
  },
  {
    "id": 548,
    "lat": 49.794,
    "lon": 36.018,
    "name:uk": "Утківка",
    "name:en": "Utkivka"
  },
  {
    "id": 549,
    "lat": 49.785,
    "lon": 33.721,
    "name:uk": "Велика Багачка",
    "name:en": "Velyka Bahachka"
  },
  {
    "id": 550,
    "lat": 49.795,
    "lon": 36.592,
    "name:uk": "Есхар",
    "name:en": "Eskhar"
  },
  {
    "id": 551,
    "lat": 49.792,
    "lon": 23.147,
    "name:uk": "Мостиська",
    "name:en": "Mostyska"
  },
  {
    "id": 552,
    "lat": 49.788,
    "lon": 23.373,
    "name:uk": "Судова Вишня",
    "name:en": "Sudova Vyshnia"
  },
  {
    "id": 553,
    "lat": 49.787,
    "lon": 32.699,
    "name:uk": "Оржиця",
    "name:en": "Orzhytsia"
  },
  {
    "id": 554,
    "lat": 49.782,
    "lon": 33.274,
    "name:uk": "Хорол",
    "name:en": "Khorol"
  },
  {
    "id": 555,
    "lat": 49.772,
    "lon": 35.071,
    "name:uk": "Скороходове",
    "name:en": "Skorokhodove"
  },
  {
    "id": 556,
    "lat": 49.773,
    "lon": 28.728,
    "name:uk": "Глухівці",
    "name:en": "Hlukhivtsi"
  },
  {
    "id": 557,
    "lat": 49.763,
    "lon": 28.644,
    "name:uk": "Бродецьке",
    "name:en": "Brodetske"
  },
  {
    "id": 558,
    "lat": 49.756,
    "lon": 27.208,
    "name:uk": "Старокостянтинів",
    "name:en": "Starokostiantyniv"
  },
  {
    "id": 559,
    "lat": 49.733,
    "lon": 29.662,
    "name:uk": "Сквира",
    "name:en": "Skvyra"
  },
  {
    "id": 560,
    "lat": 49.718,
    "lon": 23.904,
    "name:uk": "Пустомити",
    "name:en": "Pustomyty"
  },
  {
    "id": 561,
    "lat": 49.721,
    "lon": 23.73,
    "name:uk": "Великий Любінь",
    "name:en": "Velykyi Liubin"
  },
  {
    "id": 562,
    "lat": 49.721,
    "lon": 29.204,
    "name:uk": "Ружин",
    "name:en": "Ruzhyn"
  },
  {
    "id": 563,
    "lat": 49.721,
    "lon": 35.169,
    "name:uk": "Чутове",
    "name:en": "Chutove"
  },
  {
    "id": 564,
    "lat": 49.718,
    "lon": 35.86,
    "name:uk": "Нова Водолага",
    "name:en": "Nova Vodolaha"
  },
  {
    "id": 565,
    "lat": 49.713,
    "lon": 26.478,
    "name:uk": "Базалія",
    "name:en": "Bazaliia"
  },
  {
    "id": 566,
    "lat": 49.715,
    "lon": 36.934,
    "name:uk": "Чкаловське",
    "name:en": "Chkalovske"
  },
  {
    "id": 567,
    "lat": 49.713,
    "lon": 37.614,
    "name:uk": "Куп’янськ",
    "name:en": "Kupiansk"
  },
  {
    "id": 568,
    "lat": 49.701,
    "lon": 39.025,
    "name:uk": "Білолуцьк",
    "name:en": "Bilolutsk"
  },
  {
    "id": 569,
    "lat": 49.694,
    "lon": 37.175,
    "name:uk": "Шевченкове",
    "name:en": "Shevchenkove"
  },
  {
    "id": 570,
    "lat": 49.691,
    "lon": 36.413,
    "name:uk": "Зідьки",
    "name:en": "Zidky"
  },
  {
    "id": 571,
    "lat": 49.66,
    "lon": 37.643,
    "name:uk": "Куп’янськ-Вузловий",
    "name:en": "Kupiansk-Vuzlovyi"
  },
  {
    "id": 572,
    "lat": 49.686,
    "lon": 30.473,
    "name:uk": "Рокитне",
    "name:en": "Rokytne"
  },
  {
    "id": 573,
    "lat": 49.683,
    "lon": 36.052,
    "name:uk": "Бірки",
    "name:en": "Birky"
  },
  {
    "id": 574,
    "lat": 49.675,
    "lon": 22.807,
    "name:uk": "Нижанковичі",
    "name:en": "Nyzhankovychi"
  },
  {
    "id": 575,
    "lat": 49.669,
    "lon": 24.558,
    "name:uk": "Перемишляни",
    "name:en": "Peremyshliany"
  },
  {
    "id": 576,
    "lat": 49.67,
    "lon": 32.323,
    "name:uk": "Чорнобай",
    "name:en": "Chornobai"
  },
  {
    "id": 577,
    "lat": 49.654,
    "lon": 23.487,
    "name:uk": "Рудки",
    "name:en": "Rudky"
  },
  {
    "id": 578,
    "lat": 49.646,
    "lon": 23.857,
    "name:uk": "Щирець",
    "name:en": "Shchyrets"
  },
  {
    "id": 579,
    "lat": 49.636,
    "lon": 24.931,
    "name:uk": "Поморяни",
    "name:en": "Pomoriany"
  },
  {
    "id": 580,
    "lat": 49.629,
    "lon": 37.684,
    "name:uk": "Ківшарівка",
    "name:en": "Kivsharivka"
  },
  {
    "id": 581,
    "lat": 49.597,
    "lon": 27.615,
    "name:uk": "Стара Синява",
    "name:en": "Stara Syniava"
  },
  {
    "id": 582,
    "lat": 49.597,
    "lon": 33.179,
    "name:uk": "Семенівка",
    "name:en": "Semenivka"
  },
  {
    "id": 583,
    "lat": 49.598,
    "lon": 36.524,
    "name:uk": "Слобожанське",
    "name:en": "Slobozhanske"
  },
  {
    "id": 584,
    "lat": 49.58,
    "lon": 38.165,
    "name:uk": "Нижня Дуванка",
    "name:en": "Nyzhnia Duvanka"
  },
  {
    "id": 585,
    "lat": 49.558,
    "lon": 34.079,
    "name:uk": "Решетилівка",
    "name:en": "Reshetylivka"
  },
  {
    "id": 586,
    "lat": 49.556,
    "lon": 25.339,
    "name:uk": "Козлів",
    "name:en": "Kozliv"
  },
  {
    "id": 587,
    "lat": 49.558,
    "lon": 23.302,
    "name:uk": "Новий Калинів",
    "name:en": "Novyi Kalyniv"
  },
  {
    "id": 588,
    "lat": 49.547,
    "lon": 30.873,
    "name:uk": "Богуслав",
    "name:en": "Bohuslav"
  },
  {
    "id": 589,
    "lat": 49.545,
    "lon": 36.611,
    "name:uk": "Андріївка",
    "name:en": "Andriivka"
  },
  {
    "id": 590,
    "lat": 49.538,
    "lon": 39.102,
    "name:uk": "Новопсков",
    "name:en": "Novopskov"
  },
  {
    "id": 591,
    "lat": 49.533,
    "lon": 22.85,
    "name:uk": "Хирів",
    "name:en": "Khyriv"
  },
  {
    "id": 592,
    "lat": 49.526,
    "lon": 38.735,
    "name:uk": "Білокуракине",
    "name:en": "Bilokurakyne"
  },
  {
    "id": 593,
    "lat": 49.531,
    "lon": 26.144,
    "name:uk": "Підволочиськ",
    "name:en": "Pidvolochysk"
  },
  {
    "id": 594,
    "lat": 49.525,
    "lon": 23.978,
    "name:uk": "Миколаїв",
    "name:en": "Mykolaiv"
  },
  {
    "id": 595,
    "lat": 49.523,
    "lon": 39.568,
    "name:uk": "Марківка",
    "name:en": "Markivka"
  },
  {
    "id": 596,
    "lat": 49.524,
    "lon": 25.754,
    "name:uk": "Великі Бірки",
    "name:en": "Velyki Birky"
  },
  {
    "id": 597,
    "lat": 49.522,
    "lon": 29.928,
    "name:uk": "Володарка",
    "name:en": "Volodarka"
  },
  {
    "id": 598,
    "lat": 49.518,
    "lon": 24.403,
    "name:uk": "Нові Стрілища",
    "name:en": "Novi Strilyscha"
  },
  {
    "id": 599,
    "lat": 49.518,
    "lon": 23.196,
    "name:uk": "Самбір",
    "name:en": "Sambir"
  },
  {
    "id": 600,
    "lat": 49.518,
    "lon": 26.636,
    "name:uk": "Наркевичі",
    "name:en": "Narkevychi"
  },
  {
    "id": 601,
    "lat": 49.508,
    "lon": 36.576,
    "name:uk": "Донець",
    "name:en": "Donets"
  },
  {
    "id": 602,
    "lat": 49.505,
    "lon": 26.756,
    "name:uk": "Чорний Острів",
    "name:en": "Chornyi Ostriv"
  },
  {
    "id": 603,
    "lat": 49.501,
    "lon": 25.611,
    "name:uk": "Велика Березовиця",
    "name:en": "Velyka Berezovytsia"
  },
  {
    "id": 604,
    "lat": 49.499,
    "lon": 23.382,
    "name:uk": "Дубляни",
    "name:en": "Dubliany"
  },
  {
    "id": 605,
    "lat": 49.493,
    "lon": 26.444,
    "name:uk": "Війтівці",
    "name:en": "Viitivtsi"
  },
  {
    "id": 606,
    "lat": 49.489,
    "lon": 22.966,
    "name:uk": "Стара Сіль",
    "name:en": "Stara Sil"
  },
  {
    "id": 607,
    "lat": 49.462,
    "lon": 36.878,
    "name:uk": "Балаклія",
    "name:en": "Balakliia"
  },
  {
    "id": 608,
    "lat": 49.453,
    "lon": 35.137,
    "name:uk": "Карлівка",
    "name:en": "Karlivka"
  },
  {
    "id": 609,
    "lat": 49.444,
    "lon": 23.002,
    "name:uk": "Старий Самбір",
    "name:en": "Staryi Sambir"
  },
  {
    "id": 610,
    "lat": 49.444,
    "lon": 34.87,
    "name:uk": "Машівка",
    "name:en": "Mashivka"
  },
  {
    "id": 611,
    "lat": 49.433,
    "lon": 25.148,
    "name:uk": "Козова",
    "name:en": "Kozova"
  },
  {
    "id": 612,
    "lat": 49.429,
    "lon": 23.749,
    "name:uk": "Меденичі",
    "name:en": "Medenychi"
  },
  {
    "id": 613,
    "lat": 49.406,
    "lon": 24.314,
    "name:uk": "Ходорів",
    "name:en": "Khodoriv"
  },
  {
    "id": 614,
    "lat": 49.4,
    "lon": 31.095,
    "name:uk": "Стеблів",
    "name:en": "Stebliv"
  },
  {
    "id": 615,
    "lat": 49.399,
    "lon": 25.602,
    "name:uk": "Микулинці",
    "name:en": "Mykulyntsi"
  },
  {
    "id": 616,
    "lat": 49.396,
    "lon": 37.05,
    "name:uk": "Савинці",
    "name:en": "Savyntsi"
  },
  {
    "id": 617,
    "lat": 49.389,
    "lon": 30.192,
    "name:uk": "Ставище",
    "name:en": "Stavysche"
  },
  {
    "id": 618,
    "lat": 49.382,
    "lon": 27.623,
    "name:uk": "Летичів",
    "name:en": "Letychiv"
  },
  {
    "id": 619,
    "lat": 49.38,
    "lon": 40.125,
    "name:uk": "Мілове",
    "name:en": "Milove"
  },
  {
    "id": 620,
    "lat": 49.392,
    "lon": 33.25,
    "name:uk": "Глобине",
    "name:en": "Hlobyne"
  },
  {
    "id": 621,
    "lat": 49.373,
    "lon": 36.22,
    "name:uk": "Первомайський",
    "name:en": "Pervomaiskyi"
  },
  {
    "id": 622,
    "lat": 49.368,
    "lon": 29.677,
    "name:uk": "Тетіїв",
    "name:en": "Tetiiv"
  },
  {
    "id": 623,
    "lat": 49.362,
    "lon": 25.645,
    "name:uk": "Дружба",
    "name:en": "Druzhba"
  },
  {
    "id": 624,
    "lat": 49.367,
    "lon": 35.866,
    "name:uk": "Слобожанське",
    "name:en": "Slobozhanske"
  },
  {
    "id": 625,
    "lat": 49.339,
    "lon": 28.726,
    "name:uk": "Турбів",
    "name:en": "Turbiv"
  },
  {
    "id": 626,
    "lat": 49.333,
    "lon": 34.314,
    "name:uk": "Нові Санжари",
    "name:en": "Novi Sanzhary"
  },
  {
    "id": 627,
    "lat": 49.332,
    "lon": 26.009,
    "name:uk": "Гримайлів",
    "name:en": "Hrymailiv"
  },
  {
    "id": 628,
    "lat": 49.331,
    "lon": 23.25,
    "name:uk": "Підбуж",
    "name:en": "Pidbuzh"
  },
  {
    "id": 629,
    "lat": 49.337,
    "lon": 24.108,
    "name:uk": "Гніздичів",
    "name:en": "Hnizdychiv"
  },
  {
    "id": 630,
    "lat": 49.323,
    "lon": 28.083,
    "name:uk": "Літин",
    "name:en": "Lityn"
  },
  {
    "id": 631,
    "lat": 49.294,
    "lon": 23.564,
    "name:uk": "Стебник",
    "name:en": "Stebnyk"
  },
  {
    "id": 632,
    "lat": 49.29,
    "lon": 31.444,
    "name:uk": "Городище",
    "name:en": "Horodysche"
  },
  {
    "id": 633,
    "lat": 49.286,
    "lon": 35.769,
    "name:uk": "Кегичівка",
    "name:en": "Kehychivka"
  },
  {
    "id": 634,
    "lat": 49.282,
    "lon": 38.897,
    "name:uk": "Старобільськ",
    "name:en": "Starobilsk"
  },
  {
    "id": 635,
    "lat": 49.284,
    "lon": 28.539,
    "name:uk": "Десна",
    "name:en": "Desna"
  },
  {
    "id": 636,
    "lat": 49.262,
    "lon": 24.496,
    "name:uk": "Букачівці",
    "name:en": "Bukachivtsi"
  },
  {
    "id": 637,
    "lat": 49.257,
    "lon": 24.285,
    "name:uk": "Журавно",
    "name:en": "Zhuravno"
  },
  {
    "id": 638,
    "lat": 49.26,
    "lon": 24.004,
    "name:uk": "Дашава",
    "name:en": "Dashava"
  },
  {
    "id": 639,
    "lat": 49.259,
    "lon": 34.269,
    "name:uk": "Білики",
    "name:en": "Bilyky"
  },
  {
    "id": 640,
    "lat": 49.253,
    "lon": 26.254,
    "name:uk": "Сатанів",
    "name:en": "Sataniv"
  },
  {
    "id": 641,
    "lat": 49.252,
    "lon": 30.827,
    "name:uk": "Лисянка",
    "name:en": "Lysianka"
  },
  {
    "id": 642,
    "lat": 49.247,
    "lon": 30.106,
    "name:uk": "Жашків",
    "name:en": "Zhashkiv"
  },
  {
    "id": 643,
    "lat": 49.231,
    "lon": 33.12,
    "name:uk": "Градизьк",
    "name:en": "Hradyzk"
  },
  {
    "id": 644,
    "lat": 49.227,
    "lon": 23.35,
    "name:uk": "Східниця",
    "name:en": "Skhidnytsia"
  },
  {
    "id": 645,
    "lat": 49.233,
    "lon": 31.882,
    "name:uk": "Сміла",
    "name:en": "Smila"
  },
  {
    "id": 646,
    "lat": 49.229,
    "lon": 29.064,
    "name:uk": "Липовець",
    "name:en": "Lypovets"
  },
  {
    "id": 647,
    "lat": 49.216,
    "lon": 38.203,
    "name:uk": "Красноріченське",
    "name:en": "Krasnorichenske"
  },
  {
    "id": 648,
    "lat": 49.207,
    "lon": 27.655,
    "name:uk": "Вовковинці",
    "name:en": "Vovkovyntsi"
  },
  {
    "id": 649,
    "lat": 49.216,
    "lon": 31.212,
    "name:uk": "Вільшана",
    "name:en": "Vilshana"
  },
  {
    "id": 650,
    "lat": 49.213,
    "lon": 33.841,
    "name:uk": "Козельщина",
    "name:en": "Kozelschyna"
  },
  {
    "id": 651,
    "lat": 49.206,
    "lon": 39.591,
    "name:uk": "Біловодськ",
    "name:en": "Bilovodsk"
  },
  {
    "id": 652,
    "lat": 49.195,
    "lon": 35.24,
    "name:uk": "Зачепилівка",
    "name:en": "Zachepylivka"
  },
  {
    "id": 653,
    "lat": 49.194,
    "lon": 29.53,
    "name:uk": "Оратів",
    "name:en": "Orativ"
  },
  {
    "id": 654,
    "lat": 49.192,
    "lon": 26.837,
    "name:uk": "Ярмолинці",
    "name:en": "Yarmolyntsi"
  },
  {
    "id": 655,
    "lat": 49.191,
    "lon": 37.278,
    "name:uk": "Ізюм",
    "name:en": "Izium"
  },
  {
    "id": 656,
    "lat": 49.183,
    "lon": 24.746,
    "name:uk": "Більшівці",
    "name:en": "Bilshivtsi"
  },
  {
    "id": 657,
    "lat": 49.171,
    "lon": 33.76,
    "name:uk": "Нова Галещина",
    "name:en": "Nova Haleschyna"
  },
  {
    "id": 658,
    "lat": 49.153,
    "lon": 23.033,
    "name:uk": "Турка",
    "name:en": "Turka"
  },
  {
    "id": 659,
    "lat": 49.151,
    "lon": 35.875,
    "name:uk": "Сахновщина",
    "name:en": "Sakhnovschyna"
  },
  {
    "id": 660,
    "lat": 49.153,
    "lon": 23.87,
    "name:uk": "Моршин",
    "name:en": "Morshyn"
  },
  {
    "id": 661,
    "lat": 49.143,
    "lon": 34.2,
    "name:uk": "Кобеляки",
    "name:en": "Kobeliaky"
  },
  {
    "id": 662,
    "lat": 49.145,
    "lon": 36.327,
    "name:uk": "Краснопавлівка",
    "name:en": "Krasnopavlivka"
  },
  {
    "id": 663,
    "lat": 49.116,
    "lon": 26.331,
    "name:uk": "Закупне",
    "name:en": "Zakupne"
  },
  {
    "id": 664,
    "lat": 49.113,
    "lon": 29.202,
    "name:uk": "Іллінці",
    "name:en": "Illintsi"
  },
  {
    "id": 665,
    "lat": 49.111,
    "lon": 28.688,
    "name:uk": "Вороновиця",
    "name:en": "Voronovytsia"
  },
  {
    "id": 666,
    "lat": 49.116,
    "lon": 33.279,
    "name:uk": "Власівка",
    "name:en": "Vlasivka"
  },
  {
    "id": 667,
    "lat": 49.109,
    "lon": 28.159,
    "name:uk": "Браїлів",
    "name:en": "Brailiv"
  },
  {
    "id": 668,
    "lat": 49.105,
    "lon": 23.59,
    "name:uk": "Верхнє Синьовидне",
    "name:en": "Verkhnie Synovydne"
  },
  {
    "id": 669,
    "lat": 49.091,
    "lon": 30.402,
    "name:uk": "Буки",
    "name:en": "Buky"
  },
  {
    "id": 670,
    "lat": 49.093,
    "lon": 28.338,
    "name:uk": "Гнівань",
    "name:en": "Hnivan"
  },
  {
    "id": 671,
    "lat": 49.071,
    "lon": 23.002,
    "name:uk": "Бориня",
    "name:en": "Borynia"
  },
  {
    "id": 672,
    "lat": 49.075,
    "lon": 29.845,
    "name:uk": "Цибулів",
    "name:en": "Tsybuliv"
  },
  {
    "id": 673,
    "lat": 49.077,
    "lon": 32.666,
    "name:uk": "Чигирин",
    "name:en": "Chyhyryn"
  },
  {
    "id": 674,
    "lat": 49.076,
    "lon": 30.961,
    "name:uk": "Звенигородка",
    "name:en": "Zvenyhorodka"
  },
  {
    "id": 675,
    "lat": 49.077,
    "lon": 27.681,
    "name:uk": "Бар",
    "name:en": "Bar"
  },
  {
    "id": 676,
    "lat": 49.07,
    "lon": 26.199,
    "name:uk": "Гусятин",
    "name:en": "Husiatyn"
  },
  {
    "id": 677,
    "lat": 49.046,
    "lon": 38.217,
    "name:uk": "Кремінна",
    "name:en": "Kreminna"
  },
  {
    "id": 678,
    "lat": 49.045,
    "lon": 33.207,
    "name:uk": "Світловодськ",
    "name:en": "Svitlovodsk"
  },
  {
    "id": 679,
    "lat": 49.045,
    "lon": 28.418,
    "name:uk": "Сутиски",
    "name:en": "Sutysky"
  },
  {
    "id": 680,
    "lat": 49.04,
    "lon": 32.1,
    "name:uk": "Кам’янка",
    "name:en": "Kamianka"
  },
  {
    "id": 681,
    "lat": 49.041,
    "lon": 24.78,
    "name:uk": "Єзупіль",
    "name:en": "Yezupil"
  },
  {
    "id": 682,
    "lat": 49.035,
    "lon": 28.114,
    "name:uk": "Жмеринка",
    "name:en": "Zhmerynka"
  },
  {
    "id": 683,
    "lat": 49.014,
    "lon": 33.633,
    "name:uk": "Горішні Плавні",
    "name:en": "Horishni Plavni"
  },
  {
    "id": 684,
    "lat": 49.034,
    "lon": 27.232,
    "name:uk": "Віньківці",
    "name:en": "Vinkivtsi"
  },
  {
    "id": 685,
    "lat": 49.023,
    "lon": 26.843,
    "name:uk": "Дунаївці",
    "name:en": "Dunaivtsi"
  },
  {
    "id": 686,
    "lat": 49.018,
    "lon": 35.359,
    "name:uk": "Перещепине",
    "name:en": "Pereschepyne"
  },
  {
    "id": 687,
    "lat": 49.017,
    "lon": 31.061,
    "name:uk": "Ватутіне",
    "name:en": "Vatutine"
  },
  {
    "id": 688,
    "lat": 49.008,
    "lon": 26.34,
    "name:uk": "Чемерівці",
    "name:en": "Chemerivtsi"
  },
  {
    "id": 689,
    "lat": 49.013,
    "lon": 28.507,
    "name:uk": "Тиврів",
    "name:en": "Tyvriv"
  },
  {
    "id": 690,
    "lat": 49.013,
    "lon": 31.393,
    "name:uk": "Шпола",
    "name:en": "Shpola"
  },
  {
    "id": 691,
    "lat": 49.006,
    "lon": 29.441,
    "name:uk": "Дашів",
    "name:en": "Dashiv"
  },
  {
    "id": 692,
    "lat": 49.032,
    "lon": 38.372,
    "name:uk": "Рубіжне",
    "name:en": "Rubizhne"
  },
  {
    "id": 693,
    "lat": 48.999,
    "lon": 38.301,
    "name:uk": "Привілля",
    "name:en": "Pryvillia"
  },
  {
    "id": 694,
    "lat": 48.995,
    "lon": 24.185,
    "name:uk": "Брошнів-Осада",
    "name:en": "Broshniv-Osada"
  },
  {
    "id": 695,
    "lat": 48.994,
    "lon": 29.8,
    "name:uk": "Монастирище",
    "name:en": "Monastyrysche"
  },
  {
    "id": 696,
    "lat": 48.983,
    "lon": 30.994,
    "name:uk": "Єрки",
    "name:en": "Yerky"
  },
  {
    "id": 697,
    "lat": 48.977,
    "lon": 36.016,
    "name:uk": "Орілька",
    "name:en": "Orilka"
  },
  {
    "id": 698,
    "lat": 48.959,
    "lon": 38.993,
    "name:uk": "Новоайдар",
    "name:en": "Novoaidar"
  },
  {
    "id": 699,
    "lat": 48.965,
    "lon": 28.843,
    "name:uk": "Немирів",
    "name:en": "Nemyriv"
  },
  {
    "id": 700,
    "lat": 48.965,
    "lon": 32.238,
    "name:uk": "Олександрівка",
    "name:en": "Oleksandrivka"
  },
  {
    "id": 701,
    "lat": 48.963,
    "lon": 30.333,
    "name:uk": "Маньківка",
    "name:en": "Mankivka"
  },
  {
    "id": 702,
    "lat": 48.963,
    "lon": 38.351,
    "name:uk": "Новодружеськ",
    "name:en": "Novodruzhesk"
  },
  {
    "id": 703,
    "lat": 48.949,
    "lon": 26.558,
    "name:uk": "Смотрич",
    "name:en": "Smotrych"
  },
  {
    "id": 704,
    "lat": 48.945,
    "lon": 38.497,
    "name:uk": "Сєвєродонецьк",
    "name:en": "Sievierodonetsk"
  },
  {
    "id": 705,
    "lat": 48.943,
    "lon": 34.489,
    "name:uk": "Царичанка",
    "name:en": "Tsarychanka"
  },
  {
    "id": 706,
    "lat": 48.943,
    "lon": 30.972,
    "name:uk": "Катеринопіль",
    "name:en": "Katerynopil"
  },
  {
    "id": 707,
    "lat": 48.94,
    "lon": 24.158,
    "name:uk": "Рожнятів",
    "name:en": "Rozhniativ"
  },
  {
    "id": 708,
    "lat": 48.935,
    "lon": 36.277,
    "name:uk": "Панютине",
    "name:en": "Paniutyne"
  },
  {
    "id": 709,
    "lat": 48.934,
    "lon": 23.912,
    "name:uk": "Вигода",
    "name:en": "Vyhoda"
  },
  {
    "id": 710,
    "lat": 48.933,
    "lon": 25.174,
    "name:uk": "Коропець",
    "name:en": "Koropets"
  },
  {
    "id": 711,
    "lat": 48.922,
    "lon": 33.36,
    "name:uk": "Павлиш",
    "name:en": "Pavlysh"
  },
  {
    "id": 712,
    "lat": 48.914,
    "lon": 34.929,
    "name:uk": "Магдалинівка",
    "name:en": "Mahdalynivka"
  },
  {
    "id": 713,
    "lat": 48.924,
    "lon": 38.247,
    "name:uk": "Білогорівка",
    "name:en": "Bilohorivka"
  },
  {
    "id": 714,
    "lat": 48.914,
    "lon": 38.51,
    "name:uk": "Сиротине",
    "name:en": "Syrotyne"
  },
  {
    "id": 715,
    "lat": 48.909,
    "lon": 29.202,
    "name:uk": "Ситківці",
    "name:en": "Sytkivtsi"
  },
  {
    "id": 716,
    "lat": 48.909,
    "lon": 25.342,
    "name:uk": "Золотий Потік",
    "name:en": "Zolotyi Potik"
  },
  {
    "id": 717,
    "lat": 48.913,
    "lon": 31.709,
    "name:uk": "Капітанівка",
    "name:en": "Kapitanivka"
  },
  {
    "id": 718,
    "lat": 48.904,
    "lon": 33.447,
    "name:uk": "Онуфріївка",
    "name:en": "Onufriivka"
  },
  {
    "id": 719,
    "lat": 48.897,
    "lon": 38.573,
    "name:uk": "Воронове",
    "name:en": "Voronove"
  },
  {
    "id": 720,
    "lat": 48.907,
    "lon": 37.028,
    "name:uk": "Барвінкове",
    "name:en": "Barvinkove"
  },
  {
    "id": 721,
    "lat": 48.889,
    "lon": 22.458,
    "name:uk": "Великий Березний",
    "name:en": "Velykyi Bereznyi"
  },
  {
    "id": 722,
    "lat": 48.884,
    "lon": 36.316,
    "name:uk": "Лозова",
    "name:en": "Lozova"
  },
  {
    "id": 723,
    "lat": 48.888,
    "lon": 30.698,
    "name:uk": "Тальне",
    "name:en": "Talne"
  },
  {
    "id": 724,
    "lat": 48.884,
    "lon": 38.4,
    "name:uk": "Малорязанцеве",
    "name:en": "Maloriazantseve"
  },
  {
    "id": 725,
    "lat": 48.917,
    "lon": 38.428,
    "name:uk": "Лисичанськ",
    "name:en": "Lysychansk"
  },
  {
    "id": 726,
    "lat": 48.87,
    "lon": 24.61,
    "name:uk": "Лисець",
    "name:en": "Lysets"
  },
  {
    "id": 727,
    "lat": 48.87,
    "lon": 38.56,
    "name:uk": "Борівське",
    "name:en": "Borivske"
  },
  {
    "id": 728,
    "lat": 48.856,
    "lon": 27.798,
    "name:uk": "Копайгород",
    "name:en": "Kopaihorod"
  },
  {
    "id": 729,
    "lat": 48.853,
    "lon": 36.551,
    "name:uk": "Близнюки",
    "name:en": "Blyzniuky"
  },
  {
    "id": 730,
    "lat": 48.846,
    "lon": 26.201,
    "name:uk": "Скала-Подільська",
    "name:en": "Skala-Podilska"
  },
  {
    "id": 731,
    "lat": 48.844,
    "lon": 25.725,
    "name:uk": "Товсте",
    "name:en": "Tovste"
  },
  {
    "id": 732,
    "lat": 48.844,
    "lon": 23.444,
    "name:uk": "Славське",
    "name:en": "Slavske"
  },
  {
    "id": 733,
    "lat": 48.83,
    "lon": 27.266,
    "name:uk": "Нова Ушиця",
    "name:en": "Nova Ushytsia"
  },
  {
    "id": 734,
    "lat": 48.841,
    "lon": 38.371,
    "name:uk": "Вовчоярівка",
    "name:en": "Vovchoiarivka"
  },
  {
    "id": 735,
    "lat": 48.826,
    "lon": 28.937,
    "name:uk": "Брацлав",
    "name:en": "Bratslav"
  },
  {
    "id": 736,
    "lat": 48.811,
    "lon": 24.193,
    "name:uk": "Перегінське",
    "name:en": "Perehinske"
  },
  {
    "id": 737,
    "lat": 48.808,
    "lon": 35.256,
    "name:uk": "Губиниха",
    "name:en": "Hubynykha"
  },
  {
    "id": 738,
    "lat": 48.812,
    "lon": 29.389,
    "name:uk": "Гайсин",
    "name:en": "Haisyn"
  },
  {
    "id": 739,
    "lat": 48.808,
    "lon": 39.266,
    "name:uk": "Петропавлівка",
    "name:en": "Petropavlivka"
  },
  {
    "id": 740,
    "lat": 48.808,
    "lon": 38.478,
    "name:uk": "Мирна Долина",
    "name:en": "Myrna Dolyna"
  },
  {
    "id": 741,
    "lat": 48.812,
    "lon": 25.425,
    "name:uk": "Чернелиця",
    "name:en": "Chernelytsia"
  },
  {
    "id": 742,
    "lat": 48.807,
    "lon": 24.536,
    "name:uk": "Богородчани",
    "name:en": "Bohorodchany"
  },
  {
    "id": 743,
    "lat": 48.796,
    "lon": 31.652,
    "name:uk": "Новомиргород",
    "name:en": "Novomyrhorod"
  },
  {
    "id": 744,
    "lat": 48.786,
    "lon": 28.564,
    "name:uk": "Шпиків",
    "name:en": "Shpykiv"
  },
  {
    "id": 745,
    "lat": 48.782,
    "lon": 38.581,
    "name:uk": "Тошківка",
    "name:en": "Toshkivka"
  },
  {
    "id": 746,
    "lat": 48.772,
    "lon": 22.979,
    "name:uk": "Жденієво",
    "name:en": "Zhdeniievo"
  },
  {
    "id": 747,
    "lat": 48.771,
    "lon": 38.621,
    "name:uk": "Нижнє",
    "name:en": "Nyzhnie"
  },
  {
    "id": 748,
    "lat": 48.738,
    "lon": 38.386,
    "name:uk": "Врубівка",
    "name:en": "Vrubivka"
  },
  {
    "id": 749,
    "lat": 48.745,
    "lon": 36.018,
    "name:uk": "Юр’ївка",
    "name:en": "Yurivka"
  },
  {
    "id": 750,
    "lat": 48.749,
    "lon": 28.083,
    "name:uk": "Шаргород",
    "name:en": "Sharhorod"
  },
  {
    "id": 751,
    "lat": 48.737,
    "lon": 22.487,
    "name:uk": "Перечин",
    "name:en": "Perechyn"
  },
  {
    "id": 752,
    "lat": 48.734,
    "lon": 24.863,
    "name:uk": "Отинія",
    "name:en": "Otyniia"
  },
  {
    "id": 753,
    "lat": 48.739,
    "lon": 38.491,
    "name:uk": "Гірське",
    "name:en": "Hirske"
  },
  {
    "id": 754,
    "lat": 48.722,
    "lon": 38.631,
    "name:uk": "Новотошківське",
    "name:en": "Novotoshkivske"
  },
  {
    "id": 755,
    "lat": 48.714,
    "lon": 23.188,
    "name:uk": "Воловець",
    "name:en": "Volovets"
  },
  {
    "id": 756,
    "lat": 48.713,
    "lon": 27.535,
    "name:uk": "Муровані Курилівці",
    "name:en": "Murovani Kurylivtsi"
  },
  {
    "id": 757,
    "lat": 48.712,
    "lon": 34.624,
    "name:uk": "Петриківка",
    "name:en": "Petrykivka"
  },
  {
    "id": 758,
    "lat": 48.705,
    "lon": 24.423,
    "name:uk": "Солотвин",
    "name:en": "Solotvyn"
  },
  {
    "id": 759,
    "lat": 48.694,
    "lon": 38.986,
    "name:uk": "Слов’яносербськ",
    "name:en": "Slovianoserbsk"
  },
  {
    "id": 760,
    "lat": 48.707,
    "lon": 30.45,
    "name:uk": "Бабанка",
    "name:en": "Babanka"
  },
  {
    "id": 761,
    "lat": 48.712,
    "lon": 32.59,
    "name:uk": "Знам’янка Друга",
    "name:en": "Znamianka Druha"
  },
  {
    "id": 762,
    "lat": 48.69,
    "lon": 38.512,
    "name:uk": "Золоте",
    "name:en": "Zolote"
  },
  {
    "id": 763,
    "lat": 48.694,
    "lon": 38.436,
    "name:uk": "Комишуваха",
    "name:en": "Komyshuvakha"
  },
  {
    "id": 764,
    "lat": 48.696,
    "lon": 38.673,
    "name:uk": "Донецький",
    "name:en": "Donetskyi"
  },
  {
    "id": 765,
    "lat": 48.686,
    "lon": 33.922,
    "name:uk": "Лихівка",
    "name:en": "Lykhivka"
  },
  {
    "id": 766,
    "lat": 48.681,
    "lon": 29.256,
    "name:uk": "Ладижин",
    "name:en": "Ladyzhyn"
  },
  {
    "id": 767,
    "lat": 48.677,
    "lon": 32.897,
    "name:uk": "Пантаївка",
    "name:en": "Pantaivka"
  },
  {
    "id": 768,
    "lat": 48.67,
    "lon": 33.116,
    "name:uk": "Олександрія",
    "name:en": "Oleksandriia"
  },
  {
    "id": 769,
    "lat": 48.673,
    "lon": 28.856,
    "name:uk": "Тульчин",
    "name:en": "Tulchyn"
  },
  {
    "id": 770,
    "lat": 48.642,
    "lon": 39.495,
    "name:uk": "Станиця Луганська",
    "name:en": "Stanytsia Luhanska"
  },
  {
    "id": 771,
    "lat": 48.664,
    "lon": 30.804,
    "name:uk": "Новоархангельськ",
    "name:en": "Novoarkhanhelsk"
  },
  {
    "id": 772,
    "lat": 48.663,
    "lon": 29.746,
    "name:uk": "Теплик",
    "name:en": "Teplyk"
  },
  {
    "id": 773,
    "lat": 48.669,
    "lon": 38.76,
    "name:uk": "Сентянівка",
    "name:en": "Sentianivka"
  },
  {
    "id": 774,
    "lat": 48.654,
    "lon": 34.334,
    "name:uk": "Верхньодніпровськ",
    "name:en": "Verkhnodniprovsk"
  },
  {
    "id": 775,
    "lat": 48.652,
    "lon": 25.711,
    "name:uk": "Кострижівка",
    "name:en": "Kostryzhivka"
  },
  {
    "id": 776,
    "lat": 48.64,
    "lon": 31.634,
    "name:uk": "Мала Виска",
    "name:en": "Mala Vyska"
  },
  {
    "id": 777,
    "lat": 48.635,
    "lon": 35.259,
    "name:uk": "Новомосковськ",
    "name:en": "Novomoskovsk"
  },
  {
    "id": 778,
    "lat": 48.632,
    "lon": 38.377,
    "name:uk": "Попасна",
    "name:en": "Popasna"
  },
  {
    "id": 779,
    "lat": 48.625,
    "lon": 38.537,
    "name:uk": "Первомайськ",
    "name:en": "Pervomaisk"
  },
  {
    "id": 780,
    "lat": 48.609,
    "lon": 27.788,
    "name:uk": "Вендичани",
    "name:en": "Vendychany"
  },
  {
    "id": 781,
    "lat": 48.606,
    "lon": 26.164,
    "name:uk": "Мельниця-Подільська",
    "name:en": "Melnytsia-Podilska"
  },
  {
    "id": 782,
    "lat": 48.601,
    "lon": 38.601,
    "name:uk": "Ірміно",
    "name:en": "Irmino"
  },
  {
    "id": 783,
    "lat": 48.601,
    "lon": 31.295,
    "name:uk": "Смоліне",
    "name:en": "Smoline"
  },
  {
    "id": 784,
    "lat": 48.597,
    "lon": 34.428,
    "name:uk": "Дніпровське",
    "name:en": "Dniprovske"
  },
  {
    "id": 785,
    "lat": 48.597,
    "lon": 27.074,
    "name:uk": "Стара Ушиця",
    "name:en": "Stara Ushytsia"
  },
  {
    "id": 786,
    "lat": 48.585,
    "lon": 39.189,
    "name:uk": "Олександрівськ",
    "name:en": "Oleksandrivsk"
  },
  {
    "id": 787,
    "lat": 48.594,
    "lon": 38.753,
    "name:uk": "Червоногвардійське",
    "name:en": "Chervonohvardiiske"
  },
  {
    "id": 788,
    "lat": 48.605,
    "lon": 32.983,
    "name:uk": "Олександрійське",
    "name:en": "Oleksandriyske"
  },
  {
    "id": 789,
    "lat": 48.585,
    "lon": 38.927,
    "name:uk": "Зимогір’я",
    "name:en": "Zymohiria"
  },
  {
    "id": 790,
    "lat": 48.595,
    "lon": 28.978,
    "name:uk": "Кирнасівка",
    "name:en": "Kyrnasivka"
  },
  {
    "id": 791,
    "lat": 48.579,
    "lon": 34.6,
    "name:uk": "Курилівка",
    "name:en": "Kurylivka"
  },
  {
    "id": 792,
    "lat": 48.569,
    "lon": 32.904,
    "name:uk": "Нова Прага",
    "name:en": "Nova Praha"
  },
  {
    "id": 793,
    "lat": 48.567,
    "lon": 38.884,
    "name:uk": "Лозівський",
    "name:en": "Lozivskyi"
  },
  {
    "id": 794,
    "lat": 48.568,
    "lon": 35.101,
    "name:uk": "Підгородне",
    "name:en": "Pidhorodne"
  },
  {
    "id": 795,
    "lat": 48.565,
    "lon": 38.516,
    "name:uk": "Калинове",
    "name:en": "Kalynove"
  },
  {
    "id": 796,
    "lat": 48.562,
    "lon": 38.641,
    "name:uk": "Кадіївка",
    "name:en": "Kadiivka"
  },
  {
    "id": 797,
    "lat": 48.559,
    "lon": 39.025,
    "name:uk": "Родакове",
    "name:en": "Rodakove"
  },
  {
    "id": 798,
    "lat": 48.553,
    "lon": 39.178,
    "name:uk": "Юбілейне",
    "name:en": "Yuvileine"
  },
  {
    "id": 799,
    "lat": 48.549,
    "lon": 34.854,
    "name:uk": "Обухівка",
    "name:en": "Obukhivka"
  },
  {
    "id": 800,
    "lat": 48.548,
    "lon": 34.45,
    "name:uk": "Аули",
    "name:en": "Auly"
  },
  {
    "id": 801,
    "lat": 48.546,
    "lon": 22.989,
    "name:uk": "Свалява",
    "name:en": "Svalyava"
  },
  {
    "id": 802,
    "lat": 48.545,
    "lon": 28.511,
    "name:uk": "Томашпіль",
    "name:en": "Tomashpil"
  },
  {
    "id": 803,
    "lat": 48.54,
    "lon": 28.122,
    "name:uk": "Чернівці",
    "name:en": "Chernivtsi"
  },
  {
    "id": 804,
    "lat": 48.541,
    "lon": 22.504,
    "name:uk": "Середнє",
    "name:en": "Serednie"
  },
  {
    "id": 805,
    "lat": 48.529,
    "lon": 32.124,
    "name:uk": "Нове",
    "name:en": "Nove"
  },
  {
    "id": 806,
    "lat": 48.53,
    "lon": 35.082,
    "name:uk": "Слобожанське",
    "name:en": "Slobozhanske"
  },
  {
    "id": 807,
    "lat": 48.533,
    "lon": 28.752,
    "name:uk": "Вапнярка",
    "name:en": "Vapniarka"
  },
  {
    "id": 808,
    "lat": 48.528,
    "lon": 23.5,
    "name:uk": "Міжгір’я",
    "name:en": "Mizhhiria"
  },
  {
    "id": 809,
    "lat": 48.527,
    "lon": 24.628,
    "name:uk": "Делятин",
    "name:en": "Deliatyn"
  },
  {
    "id": 810,
    "lat": 48.524,
    "lon": 38.584,
    "name:uk": "Алмазна",
    "name:en": "Almazna"
  },
  {
    "id": 811,
    "lat": 48.522,
    "lon": 36.071,
    "name:uk": "Тернівка",
    "name:en": "Ternivka"
  },
  {
    "id": 812,
    "lat": 48.512,
    "lon": 29.222,
    "name:uk": "Тростянець",
    "name:en": "Trostianets"
  },
  {
    "id": 813,
    "lat": 48.513,
    "lon": 24.88,
    "name:uk": "Печеніжин",
    "name:en": "Pechenizhyn"
  },
  {
    "id": 814,
    "lat": 48.503,
    "lon": 38.664,
    "name:uk": "Брянка",
    "name:en": "Brianka"
  },
  {
    "id": 815,
    "lat": 48.5,
    "lon": 22.844,
    "name:uk": "Чинадійово",
    "name:en": "Chynadiiovo"
  },
  {
    "id": 816,
    "lat": 48.493,
    "lon": 34.023,
    "name:uk": "Вільногірськ",
    "name:en": "Vilnohirsk"
  },
  {
    "id": 817,
    "lat": 48.489,
    "lon": 39.024,
    "name:uk": "Біле",
    "name:en": "Bile"
  },
  {
    "id": 818,
    "lat": 48.494,
    "lon": 38.965,
    "name:uk": "Юр’ївка",
    "name:en": "Yurivka"
  },
  {
    "id": 819,
    "lat": 48.492,
    "lon": 38.906,
    "name:uk": "Михайлівка",
    "name:en": "Mykhailivka"
  },
  {
    "id": 820,
    "lat": 48.489,
    "lon": 39.507,
    "name:uk": "Новосвітлівка",
    "name:en": "Novosvitlivka"
  },
  {
    "id": 821,
    "lat": 48.483,
    "lon": 38.549,
    "name:uk": "Ганнівка",
    "name:en": "Hannivka"
  },
  {
    "id": 822,
    "lat": 48.484,
    "lon": 34.242,
    "name:uk": "Верхівцеве",
    "name:en": "Verkhivtseve"
  },
  {
    "id": 823,
    "lat": 48.475,
    "lon": 34.738,
    "name:uk": "Карнаухівка",
    "name:en": "Karnaukhivka"
  },
  {
    "id": 824,
    "lat": 48.474,
    "lon": 38.586,
    "name:uk": "Глибокий",
    "name:en": "Hlybokyi"
  },
  {
    "id": 825,
    "lat": 48.47,
    "lon": 22.752,
    "name:uk": "Кольчино",
    "name:en": "Kolchyno"
  },
  {
    "id": 826,
    "lat": 48.466,
    "lon": 33.179,
    "name:uk": "Балахівка",
    "name:en": "Balakhivka"
  },
  {
    "id": 827,
    "lat": 48.468,
    "lon": 35.041,
    "name:uk": "Дніпро",
    "name:en": "Dnipro"
  },
  {
    "id": 828,
    "lat": 48.458,
    "lon": 36.424,
    "name:uk": "Петропавлівка",
    "name:en": "Petropavlivka"
  },
  {
    "id": 829,
    "lat": 48.451,
    "lon": 38.562,
    "name:uk": "Ломуватка",
    "name:en": "Lomuvatka"
  },
  {
    "id": 830,
    "lat": 48.442,
    "lon": 27.799,
    "name:uk": "Могилів-Подільський",
    "name:en": "Mohyliv-Podilskyi"
  },
  {
    "id": 831,
    "lat": 48.442,
    "lon": 22.718,
    "name:uk": "Мукачево",
    "name:en": "Mukachevo"
  },
  {
    "id": 832,
    "lat": 48.438,
    "lon": 38.721,
    "name:uk": "Артемівськ",
    "name:en": "Artemivsk"
  },
  {
    "id": 833,
    "lat": 48.44,
    "lon": 38.799,
    "name:uk": "Перевальськ",
    "name:en": "Perevalsk"
  },
  {
    "id": 834,
    "lat": 48.437,
    "lon": 33.916,
    "name:uk": "Вишневе",
    "name:en": "Vyshneve"
  },
  {
    "id": 835,
    "lat": 48.444,
    "lon": 39.097,
    "name:uk": "Білоріченський",
    "name:en": "Bilorichenskyi"
  },
  {
    "id": 836,
    "lat": 48.437,
    "lon": 38.532,
    "name:uk": "Южна Ломуватка",
    "name:en": "Yuzhna Lomuvatka"
  },
  {
    "id": 837,
    "lat": 48.435,
    "lon": 39.148,
    "name:uk": "Леніна",
    "name:en": "Lenina"
  },
  {
    "id": 838,
    "lat": 48.429,
    "lon": 39.269,
    "name:uk": "Георгіївка",
    "name:en": "Heorhiivka"
  },
  {
    "id": 839,
    "lat": 48.427,
    "lon": 35.239,
    "name:uk": "Сад",
    "name:en": "Sad"
  },
  {
    "id": 840,
    "lat": 48.412,
    "lon": 33.701,
    "name:uk": "П’ятихатки",
    "name:en": "Piatykhatky"
  },
  {
    "id": 841,
    "lat": 48.427,
    "lon": 39.109,
    "name:uk": "Врубівський",
    "name:en": "Vrubivskyi"
  },
  {
    "id": 842,
    "lat": 48.415,
    "lon": 38.75,
    "name:uk": "Ящикове",
    "name:en": "Yaschykove"
  },
  {
    "id": 843,
    "lat": 48.412,
    "lon": 38.627,
    "name:uk": "Зоринськ",
    "name:en": "Zorynsk"
  },
  {
    "id": 844,
    "lat": 48.404,
    "lon": 35.275,
    "name:uk": "Іларіонове",
    "name:en": "Ilarionove"
  },
  {
    "id": 845,
    "lat": 48.405,
    "lon": 24.941,
    "name:uk": "Яблунів",
    "name:en": "Yabluniv"
  },
  {
    "id": 846,
    "lat": 48.402,
    "lon": 25.647,
    "name:uk": "Неполоківці",
    "name:en": "Nepolokivtsi"
  },
  {
    "id": 847,
    "lat": 48.4,
    "lon": 39.198,
    "name:uk": "Лутугине",
    "name:en": "Lutuhyne"
  },
  {
    "id": 848,
    "lat": 48.408,
    "lon": 38.849,
    "name:uk": "Бугаївка",
    "name:en": "Buhaivka"
  },
  {
    "id": 849,
    "lat": 48.4,
    "lon": 38.528,
    "name:uk": "Вергулівка",
    "name:en": "Verhulivka"
  },
  {
    "id": 850,
    "lat": 48.398,
    "lon": 38.79,
    "name:uk": "Селезнівка",
    "name:en": "Seleznivka"
  },
  {
    "id": 851,
    "lat": 48.393,
    "lon": 39.156,
    "name:uk": "Успенка",
    "name:en": "Uspenka"
  },
  {
    "id": 852,
    "lat": 48.39,
    "lon": 38.596,
    "name:uk": "Байрачки",
    "name:en": "Bairachky"
  },
  {
    "id": 853,
    "lat": 48.387,
    "lon": 31.177,
    "name:uk": "Добровеличківка",
    "name:en": "Dobrovelychkivka"
  },
  {
    "id": 854,
    "lat": 48.39,
    "lon": 38.533,
    "name:uk": "Комісарівка",
    "name:en": "Komisarivka"
  },
  {
    "id": 855,
    "lat": 48.385,
    "lon": 28.869,
    "name:uk": "Крижопіль",
    "name:en": "Kryzhopil"
  },
  {
    "id": 856,
    "lat": 48.383,
    "lon": 30.465,
    "name:uk": "Голованівськ",
    "name:en": "Holovanivsk"
  },
  {
    "id": 857,
    "lat": 48.374,
    "lon": 34.456,
    "name:uk": "Кринички",
    "name:en": "Krynychky"
  },
  {
    "id": 858,
    "lat": 48.365,
    "lon": 29.518,
    "name:uk": "Бершадь",
    "name:en": "Bershad"
  },
  {
    "id": 859,
    "lat": 48.365,
    "lon": 32.657,
    "name:uk": "Новгородка",
    "name:en": "Novhorodka"
  },
  {
    "id": 860,
    "lat": 48.367,
    "lon": 39.877,
    "name:uk": "Сєверо-Гундорівський",
    "name:en": "Sievero-Hundorivskyi"
  },
  {
    "id": 861,
    "lat": 48.36,
    "lon": 34.113,
    "name:uk": "Божедарівка",
    "name:en": "Bozhedarivka"
  },
  {
    "id": 862,
    "lat": 48.35,
    "lon": 36.402,
    "name:uk": "Першотравенськ",
    "name:en": "Pershotravensk"
  },
  {
    "id": 863,
    "lat": 48.346,
    "lon": 33.502,
    "name:uk": "Жовті Води",
    "name:en": "Zhovti Vody"
  },
  {
    "id": 864,
    "lat": 48.363,
    "lon": 22.399,
    "name:uk": "Батьово",
    "name:en": "Batovo"
  },
  {
    "id": 865,
    "lat": 48.356,
    "lon": 39.921,
    "name:uk": "Сєверний",
    "name:en": "Sievernyi"
  },
  {
    "id": 866,
    "lat": 48.347,
    "lon": 38.572,
    "name:uk": "Центральний",
    "name:en": "Tsentralnyi"
  },
  {
    "id": 867,
    "lat": 48.353,
    "lon": 39.724,
    "name:uk": "Суходільськ",
    "name:en": "Sukhodilsk"
  },
  {
    "id": 868,
    "lat": 48.345,
    "lon": 39.652,
    "name:uk": "Молодогвардійськ",
    "name:en": "Molodohvardiysk"
  },
  {
    "id": 869,
    "lat": 48.327,
    "lon": 30.234,
    "name:uk": "Благовіщенське",
    "name:en": "Blahovishchenske"
  },
  {
    "id": 870,
    "lat": 48.332,
    "lon": 39.531,
    "name:uk": "Сімейкине",
    "name:en": "Simeikyne"
  },
  {
    "id": 871,
    "lat": 48.336,
    "lon": 33.266,
    "name:uk": "Петрове",
    "name:en": "Petrove"
  },
  {
    "id": 872,
    "lat": 48.324,
    "lon": 23.934,
    "name:uk": "Усть-Чорна",
    "name:en": "Ust-Chorna"
  },
  {
    "id": 873,
    "lat": 48.327,
    "lon": 38.501,
    "name:uk": "Чорнухине",
    "name:en": "Chornukhyne"
  },
  {
    "id": 874,
    "lat": 48.333,
    "lon": 39.795,
    "name:uk": "Урало-Кавказ",
    "name:en": "Uralo-Kavkaz"
  },
  {
    "id": 875,
    "lat": 48.323,
    "lon": 38.633,
    "name:uk": "Городище",
    "name:en": "Horodysche"
  },
  {
    "id": 876,
    "lat": 48.325,
    "lon": 31.522,
    "name:uk": "Новоукраїнка",
    "name:en": "Novoukrainka"
  },
  {
    "id": 877,
    "lat": 48.326,
    "lon": 35.524,
    "name:uk": "Синельникове",
    "name:en": "Synelnykove"
  },
  {
    "id": 878,
    "lat": 48.319,
    "lon": 23.041,
    "name:uk": "Іршава",
    "name:en": "Irshava"
  },
  {
    "id": 879,
    "lat": 48.316,
    "lon": 38.848,
    "name:uk": "Федорівка",
    "name:en": "Fedorivka"
  },
  {
    "id": 880,
    "lat": 48.311,
    "lon": 39.663,
    "name:uk": "Талове",
    "name:en": "Talove"
  },
  {
    "id": 881,
    "lat": 48.313,
    "lon": 38.944,
    "name:uk": "Штерівка",
    "name:en": "Shterivka"
  },
  {
    "id": 882,
    "lat": 48.309,
    "lon": 39.018,
    "name:uk": "Маломиколаївка",
    "name:en": "Malomykolaivka"
  },
  {
    "id": 883,
    "lat": 48.295,
    "lon": 39.729,
    "name:uk": "Краснодон",
    "name:en": "Krasnodon"
  },
  {
    "id": 884,
    "lat": 48.309,
    "lon": 39.565,
    "name:uk": "Краснодон",
    "name:en": "Krasnodon"
  },
  {
    "id": 885,
    "lat": 48.297,
    "lon": 39.962,
    "name:uk": "Краснодарський",
    "name:en": "Krasnodarskyi"
  },
  {
    "id": 886,
    "lat": 48.297,
    "lon": 39.614,
    "name:uk": "Енгельсове",
    "name:en": "Enhelsove"
  },
  {
    "id": 887,
    "lat": 48.294,
    "lon": 38.866,
    "name:uk": "Петровське",
    "name:en": "Petrovske"
  },
  {
    "id": 888,
    "lat": 48.287,
    "lon": 39.653,
    "name:uk": "Мирне",
    "name:en": "Myrne"
  },
  {
    "id": 889,
    "lat": 48.285,
    "lon": 39.891,
    "name:uk": "Ізварине",
    "name:en": "Izvaryne"
  },
  {
    "id": 890,
    "lat": 48.278,
    "lon": 39.604,
    "name:uk": "Гірне",
    "name:en": "Hirne"
  },
  {
    "id": 891,
    "lat": 48.278,
    "lon": 38.599,
    "name:uk": "Фащівка",
    "name:en": "Faschivka"
  },
  {
    "id": 892,
    "lat": 48.272,
    "lon": 24.361,
    "name:uk": "Ясіня",
    "name:en": "Yasinia"
  },
  {
    "id": 893,
    "lat": 48.26,
    "lon": 29.983,
    "name:uk": "Салькове",
    "name:en": "Salkove"
  },
  {
    "id": 894,
    "lat": 48.267,
    "lon": 39.627,
    "name:uk": "Новоолександрівка",
    "name:en": "Novooleksandrivka"
  },
  {
    "id": 895,
    "lat": 48.262,
    "lon": 25.181,
    "name:uk": "Кути",
    "name:en": "Kuty"
  },
  {
    "id": 896,
    "lat": 48.258,
    "lon": 39.555,
    "name:uk": "Великий Лог",
    "name:en": "Velykyi Loh"
  },
  {
    "id": 897,
    "lat": 48.257,
    "lon": 38.724,
    "name:uk": "Запоріжжя",
    "name:en": "Zaporizhzhia"
  },
  {
    "id": 898,
    "lat": 48.257,
    "lon": 28.934,
    "name:uk": "Рудниця",
    "name:en": "Rudnytsia"
  },
  {
    "id": 899,
    "lat": 48.249,
    "lon": 32.204,
    "name:uk": "Компаніївка",
    "name:en": "Kompaniivka"
  },
  {
    "id": 900,
    "lat": 48.245,
    "lon": 38.808,
    "name:uk": "Грушове",
    "name:en": "Hrushove"
  },
  {
    "id": 901,
    "lat": 48.255,
    "lon": 36.732,
    "name:uk": "Межова",
    "name:en": "Mezhova"
  },
  {
    "id": 902,
    "lat": 48.243,
    "lon": 31.403,
    "name:uk": "Помічна",
    "name:en": "Pomichna"
  },
  {
    "id": 903,
    "lat": 48.237,
    "lon": 38.935,
    "name:uk": "Іванівка",
    "name:en": "Ivanivka"
  },
  {
    "id": 904,
    "lat": 48.235,
    "lon": 30.874,
    "name:uk": "Вільшанка",
    "name:en": "Vilshanka"
  },
  {
    "id": 905,
    "lat": 48.224,
    "lon": 38.669,
    "name:uk": "Фащівка",
    "name:en": "Faschivka"
  },
  {
    "id": 906,
    "lat": 48.216,
    "lon": 38.875,
    "name:uk": "Софіївський",
    "name:en": "Sofiivskyi"
  },
  {
    "id": 907,
    "lat": 48.212,
    "lon": 29.359,
    "name:uk": "Чечельник",
    "name:en": "Chechelnyk"
  },
  {
    "id": 908,
    "lat": 48.21,
    "lon": 36.03,
    "name:uk": "Васильківка",
    "name:en": "Vasylkivka"
  },
  {
    "id": 909,
    "lat": 48.208,
    "lon": 38.788,
    "name:uk": "Красний Кут",
    "name:en": "Krasnyi Kut"
  },
  {
    "id": 910,
    "lat": 48.208,
    "lon": 30.013,
    "name:uk": "Завалля",
    "name:en": "Zavallia"
  },
  {
    "id": 911,
    "lat": 48.204,
    "lon": 34.877,
    "name:uk": "Солоне",
    "name:en": "Solone"
  },
  {
    "id": 912,
    "lat": 48.207,
    "lon": 28.886,
    "name:uk": "Піщанка",
    "name:en": "Pischanka"
  },
  {
    "id": 913,
    "lat": 48.179,
    "lon": 23.885,
    "name:uk": "Дубове",
    "name:en": "Dubove"
  },
  {
    "id": 914,
    "lat": 48.176,
    "lon": 23.291,
    "name:uk": "Хуст",
    "name:en": "Khust"
  },
  {
    "id": 915,
    "lat": 48.173,
    "lon": 39.123,
    "name:uk": "Щотове",
    "name:en": "Schotove"
  },
  {
    "id": 916,
    "lat": 48.163,
    "lon": 30.594,
    "name:uk": "Побузьке",
    "name:en": "Pobuzke"
  },
  {
    "id": 917,
    "lat": 48.172,
    "lon": 25.33,
    "name:uk": "Берегомет",
    "name:en": "Berehomet"
  },
  {
    "id": 918,
    "lat": 48.165,
    "lon": 39.152,
    "name:uk": "Кам’яне",
    "name:en": "Kamiane"
  },
  {
    "id": 919,
    "lat": 48.154,
    "lon": 39.222,
    "name:uk": "Ясенівський",
    "name:en": "Yasenivskyi"
  },
  {
    "id": 920,
    "lat": 48.153,
    "lon": 24.827,
    "name:uk": "Верховина",
    "name:en": "Verkhovyna"
  },
  {
    "id": 921,
    "lat": 48.154,
    "lon": 23.132,
    "name:uk": "Королево",
    "name:en": "Korolevo"
  },
  {
    "id": 922,
    "lat": 48.151,
    "lon": 38.858,
    "name:uk": "Хрустальне",
    "name:en": "Khrustalne"
  },
  {
    "id": 923,
    "lat": 48.149,
    "lon": 38.818,
    "name:uk": "Вахрушеве",
    "name:en": "Vakhrusheve"
  },
  {
    "id": 924,
    "lat": 48.141,
    "lon": 39.436,
    "name:uk": "Великокам’янка",
    "name:en": "Velykokamianka"
  },
  {
    "id": 925,
    "lat": 48.14,
    "lon": 23.036,
    "name:uk": "Виноградів",
    "name:en": "Vynohradiv"
  },
  {
    "id": 926,
    "lat": 48.136,
    "lon": 39.246,
    "name:uk": "Пролетарський",
    "name:en": "Proletarskyi"
  },
  {
    "id": 927,
    "lat": 48.135,
    "lon": 38.919,
    "name:uk": "Красний Луч",
    "name:en": "Krasnyi Luch"
  },
  {
    "id": 928,
    "lat": 48.131,
    "lon": 39.54,
    "name:uk": "Павлівка",
    "name:en": "Pavlivka"
  },
  {
    "id": 929,
    "lat": 48.128,
    "lon": 39.59,
    "name:uk": "Володарськ",
    "name:en": "Volodarsk"
  },
  {
    "id": 930,
    "lat": 48.128,
    "lon": 36.226,
    "name:uk": "Чаплине",
    "name:en": "Chaplyne"
  },
  {
    "id": 931,
    "lat": 48.125,
    "lon": 39.67,
    "name:uk": "Комсомольський",
    "name:en": "Komsomolskyi"
  },
  {
    "id": 932,
    "lat": 48.124,
    "lon": 30.079,
    "name:uk": "Саврань",
    "name:en": "Savran"
  },
  {
    "id": 933,
    "lat": 48.12,
    "lon": 39.013,
    "name:uk": "Боково-Платове",
    "name:en": "Bokovo-Platove"
  },
  {
    "id": 934,
    "lat": 48.119,
    "lon": 36.369,
    "name:uk": "Просяна",
    "name:en": "Prosiana"
  },
  {
    "id": 935,
    "lat": 48.116,
    "lon": 39.462,
    "name:uk": "Кленовий",
    "name:en": "Klenovyi"
  },
  {
    "id": 936,
    "lat": 48.116,
    "lon": 39.088,
    "name:uk": "Антрацит",
    "name:en": "Antratsyt"
  },
  {
    "id": 937,
    "lat": 48.116,
    "lon": 32.763,
    "name:uk": "Долинська",
    "name:en": "Dolynska"
  },
  {
    "id": 938,
    "lat": 48.113,
    "lon": 38.856,
    "name:uk": "Княгинівка",
    "name:en": "Kniahynivka"
  },
  {
    "id": 939,
    "lat": 48.111,
    "lon": 22.837,
    "name:uk": "Вилок",
    "name:en": "Vylok"
  },
  {
    "id": 940,
    "lat": 48.104,
    "lon": 29.128,
    "name:uk": "Кодима",
    "name:en": "Kodyma"
  },
  {
    "id": 941,
    "lat": 48.09,
    "lon": 38.893,
    "name:uk": "Міусинськ",
    "name:en": "Miusynsk"
  },
  {
    "id": 942,
    "lat": 48.091,
    "lon": 39.063,
    "name:uk": "Кріпенський",
    "name:en": "Kripenskyi"
  },
  {
    "id": 943,
    "lat": 48.085,
    "lon": 25.928,
    "name:uk": "Глибока",
    "name:en": "Hlyboka"
  },
  {
    "id": 944,
    "lat": 48.084,
    "lon": 39.084,
    "name:uk": "Верхній Нагольчик",
    "name:en": "Verkhnii Naholchyk"
  },
  {
    "id": 945,
    "lat": 48.048,
    "lon": 33.866,
    "name:uk": "Софіївка",
    "name:en": "Sofiivka"
  },
  {
    "id": 946,
    "lat": 48.081,
    "lon": 39.642,
    "name:uk": "Свердловськ",
    "name:en": "Sverdlovsk"
  },
  {
    "id": 947,
    "lat": 48.077,
    "lon": 39.478,
    "name:uk": "Новодар’ївка",
    "name:en": "Novodarivka"
  },
  {
    "id": 948,
    "lat": 48.076,
    "lon": 39.773,
    "name:uk": "Червонопартизанськ",
    "name:en": "Chervonopartyzansk"
  },
  {
    "id": 949,
    "lat": 48.075,
    "lon": 39.554,
    "name:uk": "Ленінське",
    "name:en": "Leninske"
  },
  {
    "id": 950,
    "lat": 48.075,
    "lon": 39.239,
    "name:uk": "Михайлівка",
    "name:en": "Mykhailivka"
  },
  {
    "id": 951,
    "lat": 48.069,
    "lon": 39.212,
    "name:uk": "Тацине",
    "name:en": "Tatsyne"
  },
  {
    "id": 952,
    "lat": 48.069,
    "lon": 39.194,
    "name:uk": "Гірник",
    "name:en": "Hirnyk"
  },
  {
    "id": 953,
    "lat": 48.063,
    "lon": 39.121,
    "name:uk": "Дубівський",
    "name:en": "Dubivskyi"
  },
  {
    "id": 954,
    "lat": 48.057,
    "lon": 32.159,
    "name:uk": "Бобринець",
    "name:en": "Bobrynets"
  },
  {
    "id": 955,
    "lat": 48.056,
    "lon": 24.064,
    "name:uk": "Кобилецька Поляна",
    "name:en": "Kobyletska Poliana"
  },
  {
    "id": 956,
    "lat": 48.045,
    "lon": 30.847,
    "name:uk": "Первомайськ",
    "name:en": "Pervomaisk"
  },
  {
    "id": 957,
    "lat": 48.048,
    "lon": 39.452,
    "name:uk": "Дзержинський",
    "name:en": "Dzerzhynskyi"
  },
  {
    "id": 958,
    "lat": 48.046,
    "lon": 23.427,
    "name:uk": "Вишково",
    "name:en": "Vyshkovo"
  },
  {
    "id": 959,
    "lat": 48.055,
    "lon": 39.555,
    "name:uk": "Шахтарське",
    "name:en": "Shakhtarske"
  },
  {
    "id": 960,
    "lat": 48.018,
    "lon": 25.6,
    "name:uk": "Красноїльськ",
    "name:en": "Krasnoilsk"
  },
  {
    "id": 961,
    "lat": 48.017,
    "lon": 39.591,
    "name:uk": "Калінінський",
    "name:en": "Kalininskyi"
  },
  {
    "id": 962,
    "lat": 48.011,
    "lon": 23.578,
    "name:uk": "Тячів",
    "name:en": "Tiachiv"
  },
  {
    "id": 963,
    "lat": 48.001,
    "lon": 39.474,
    "name:uk": "Нагольно-Тарасівка",
    "name:en": "Naholno-Tarasivka"
  },
  {
    "id": 964,
    "lat": 47.997,
    "lon": 23.699,
    "name:uk": "Тересва",
    "name:en": "Teresva"
  },
  {
    "id": 965,
    "lat": 47.995,
    "lon": 25.084,
    "name:uk": "Путила",
    "name:en": "Putyla"
  },
  {
    "id": 966,
    "lat": 47.98,
    "lon": 36.233,
    "name:uk": "Покровське",
    "name:en": "Pokrovske"
  },
  {
    "id": 967,
    "lat": 47.983,
    "lon": 33.091,
    "name:uk": "Христофорівка",
    "name:en": "Khrystoforivka"
  },
  {
    "id": 968,
    "lat": 47.971,
    "lon": 35.898,
    "name:uk": "Новомиколаївка",
    "name:en": "Novomykolaivka"
  },
  {
    "id": 969,
    "lat": 47.973,
    "lon": 24.014,
    "name:uk": "Великий Бичків",
    "name:en": "Velykyi Bychkiv"
  },
  {
    "id": 970,
    "lat": 47.957,
    "lon": 32.536,
    "name:uk": "Устинівка",
    "name:en": "Ustynivka"
  },
  {
    "id": 971,
    "lat": 47.953,
    "lon": 30.342,
    "name:uk": "Криве Озеро",
    "name:en": "Kryve Ozero"
  },
  {
    "id": 972,
    "lat": 47.943,
    "lon": 35.431,
    "name:uk": "Вільнянськ",
    "name:en": "Vilniansk"
  },
  {
    "id": 973,
    "lat": 47.936,
    "lon": 29.622,
    "name:uk": "Балта",
    "name:en": "Balta"
  },
  {
    "id": 974,
    "lat": 47.907,
    "lon": 31.315,
    "name:uk": "Арбузинка",
    "name:en": "Arbuzynka"
  },
  {
    "id": 975,
    "lat": 47.859,
    "lon": 30.589,
    "name:uk": "Врадіївка",
    "name:en": "Vradiivka"
  },
  {
    "id": 976,
    "lat": 47.831,
    "lon": 30.256,
    "name:uk": "Любашівка",
    "name:en": "Liubashivka"
  },
  {
    "id": 977,
    "lat": 47.829,
    "lon": 36.126,
    "name:uk": "Тернувате",
    "name:en": "Ternuvate"
  },
  {
    "id": 978,
    "lat": 47.824,
    "lon": 31.178,
    "name:uk": "Южноукраїнськ",
    "name:en": "Yuzhnoukrainsk"
  },
  {
    "id": 979,
    "lat": 47.822,
    "lon": 33.501,
    "name:uk": "Радушне",
    "name:en": "Radushne"
  },
  {
    "id": 980,
    "lat": 47.835,
    "lon": 32.824,
    "name:uk": "Казанка",
    "name:en": "Kazanka"
  },
  {
    "id": 981,
    "lat": 47.812,
    "lon": 34.752,
    "name:uk": "Томаківка",
    "name:en": "Tomakivka"
  },
  {
    "id": 982,
    "lat": 47.749,
    "lon": 29.53,
    "name:uk": "Подільськ",
    "name:en": "Podilsk"
  },
  {
    "id": 983,
    "lat": 47.747,
    "lon": 35.216,
    "name:uk": "Балабине",
    "name:en": "Balabyne"
  },
  {
    "id": 984,
    "lat": 47.723,
    "lon": 34.16,
    "name:uk": "Гірницьке",
    "name:en": "Hirnytske"
  },
  {
    "id": 985,
    "lat": 47.717,
    "lon": 29.96,
    "name:uk": "Ананьїв",
    "name:en": "Ananiv"
  },
  {
    "id": 986,
    "lat": 47.716,
    "lon": 35.209,
    "name:uk": "Кушугум",
    "name:en": "Kushuhum"
  },
  {
    "id": 987,
    "lat": 47.714,
    "lon": 35.532,
    "name:uk": "Комишуваха",
    "name:en": "Komyshuvakha"
  },
  {
    "id": 988,
    "lat": 47.696,
    "lon": 31.848,
    "name:uk": "Єланець",
    "name:en": "Yelanets"
  },
  {
    "id": 989,
    "lat": 47.684,
    "lon": 33.264,
    "name:uk": "Широке",
    "name:en": "Shyroke"
  },
  {
    "id": 990,
    "lat": 47.689,
    "lon": 31.278,
    "name:uk": "Олександрівка",
    "name:en": "Oleksandrivka"
  },
  {
    "id": 991,
    "lat": 47.661,
    "lon": 33.718,
    "name:uk": "Апостолове",
    "name:en": "Apostolove"
  },
  {
    "id": 992,
    "lat": 47.654,
    "lon": 34.114,
    "name:uk": "Покров",
    "name:en": "Pokrov"
  },
  {
    "id": 993,
    "lat": 47.655,
    "lon": 35.257,
    "name:uk": "Малокатеринівка",
    "name:en": "Malokaterynivka"
  },
  {
    "id": 994,
    "lat": 47.649,
    "lon": 34.649,
    "name:uk": "Марганець",
    "name:en": "Marhanets"
  },
  {
    "id": 995,
    "lat": 47.632,
    "lon": 30.989,
    "name:uk": "Доманівка",
    "name:en": "Domanivka"
  },
  {
    "id": 996,
    "lat": 47.621,
    "lon": 34.524,
    "name:uk": "Червоногригорівка",
    "name:en": "Chervonohryhorivka"
  },
  {
    "id": 997,
    "lat": 47.615,
    "lon": 34.136,
    "name:uk": "Чортомлик",
    "name:en": "Chortomlyk"
  },
  {
    "id": 998,
    "lat": 47.615,
    "lon": 34.621,
    "name:uk": "Мар’ївка",
    "name:en": "Marivka"
  },
  {
    "id": 999,
    "lat": 47.569,
    "lon": 35.778,
    "name:uk": "Оріхів",
    "name:en": "Orikhiv"
  },
  {
    "id": 1000,
    "lat": 47.539,
    "lon": 29.458,
    "name:uk": "Окни",
    "name:en": "Okny"
  },
  {
    "id": 1001,
    "lat": 47.536,
    "lon": 30.754,
    "name:uk": "Миколаївка",
    "name:en": "Mykolaivka"
  },
  {
    "id": 1002,
    "lat": 47.497,
    "lon": 34.648,
    "name:uk": "Енергодар",
    "name:en": "Enerhodar"
  },
  {
    "id": 1003,
    "lat": 47.495,
    "lon": 33.919,
    "name:uk": "Нововоронцовка",
    "name:en": "Novovorontsovka"
  },
  {
    "id": 1004,
    "lat": 47.49,
    "lon": 34.41,
    "name:uk": "Кам’янка-Дніпровська",
    "name:en": "Kamianka-Dniprovska"
  },
  {
    "id": 1005,
    "lat": 47.493,
    "lon": 33.528,
    "name:uk": "Високопілля",
    "name:en": "Vysokopillia"
  },
  {
    "id": 1006,
    "lat": 47.431,
    "lon": 33.405,
    "name:uk": "Архангельське",
    "name:en": "Arkhanhelske"
  },
  {
    "id": 1007,
    "lat": 47.443,
    "lon": 35.28,
    "name:uk": "Василівка",
    "name:en": "Vasylivka"
  },
  {
    "id": 1008,
    "lat": 47.403,
    "lon": 32.438,
    "name:uk": "Баштанка",
    "name:en": "Bashtanka"
  },
  {
    "id": 1009,
    "lat": 47.386,
    "lon": 37.067,
    "name:uk": "Розівка",
    "name:en": "Rozivka"
  },
  {
    "id": 1010,
    "lat": 47.389,
    "lon": 35.002,
    "name:uk": "Дніпрорудне",
    "name:en": "Dniprorudne"
  },
  {
    "id": 1011,
    "lat": 47.384,
    "lon": 30.189,
    "name:uk": "Ширяєве",
    "name:en": "Shyriaieve"
  },
  {
    "id": 1012,
    "lat": 47.362,
    "lon": 36.651,
    "name:uk": "Кам'янка",
    "name:en": "Kamianka"
  },
  {
    "id": 1013,
    "lat": 47.356,
    "lon": 31.236,
    "name:uk": "Веселинове",
    "name:en": "Veselynove"
  },
  {
    "id": 1014,
    "lat": 47.325,
    "lon": 29.893,
    "name:uk": "Затишшя",
    "name:en": "Zatyshshia"
  },
  {
    "id": 1015,
    "lat": 47.342,
    "lon": 29.74,
    "name:uk": "Захарівка",
    "name:en": "Zakharivka"
  },
  {
    "id": 1016,
    "lat": 47.329,
    "lon": 36.702,
    "name:uk": "Комиш-Зоря",
    "name:en": "Komysh-Zoria"
  },
  {
    "id": 1017,
    "lat": 47.315,
    "lon": 33.299,
    "name:uk": "Велика Олександрівка",
    "name:en": "Velyka Oleksandrivka"
  },
  {
    "id": 1018,
    "lat": 47.308,
    "lon": 32.848,
    "name:uk": "Березнегувате",
    "name:en": "Bereznehuvate"
  },
  {
    "id": 1019,
    "lat": 47.31,
    "lon": 31.773,
    "name:uk": "Нова Одеса",
    "name:en": "Nova Odesa"
  },
  {
    "id": 1020,
    "lat": 47.305,
    "lon": 31.019,
    "name:uk": "Токарівка",
    "name:en": "Tokarivka"
  },
  {
    "id": 1021,
    "lat": 47.265,
    "lon": 35.221,
    "name:uk": "Михайлівка",
    "name:en": "Mykhailivka"
  },
  {
    "id": 1022,
    "lat": 47.206,
    "lon": 35.597,
    "name:uk": "Молочанськ",
    "name:en": "Molochansk"
  },
  {
    "id": 1023,
    "lat": 47.201,
    "lon": 30.908,
    "name:uk": "Березівка",
    "name:en": "Berezivka"
  },
  {
    "id": 1024,
    "lat": 47.178,
    "lon": 33.942,
    "name:uk": "Велика Лепетиха",
    "name:en": "Velyka Lepetykha"
  },
  {
    "id": 1025,
    "lat": 47.194,
    "lon": 36.207,
    "name:uk": "Чернігівка",
    "name:en": "Chernihivka"
  },
  {
    "id": 1026,
    "lat": 47.147,
    "lon": 30.105,
    "name:uk": "Цебрикове",
    "name:en": "Tsebrykove"
  },
  {
    "id": 1027,
    "lat": 47.093,
    "lon": 36.59,
    "name:uk": "Андріївка",
    "name:en": "Andriivka"
  },
  {
    "id": 1028,
    "lat": 47.07,
    "lon": 32.792,
    "name:uk": "Снігурівка",
    "name:en": "Snihurivka"
  },
  {
    "id": 1029,
    "lat": 47.077,
    "lon": 29.85,
    "name:uk": "Велика Михайлівка",
    "name:en": "Velyka Mykhailivka"
  },
  {
    "id": 1030,
    "lat": 47.017,
    "lon": 34.921,
    "name:uk": "Веселе",
    "name:en": "Vesele"
  },
  {
    "id": 1031,
    "lat": 47.017,
    "lon": 32.146,
    "name:uk": "Воскресенське",
    "name:en": "Voskresenske"
  },
  {
    "id": 1032,
    "lat": 47.007,
    "lon": 33.731,
    "name:uk": "Горностаївка",
    "name:en": "Hornostaivka"
  },
  {
    "id": 1033,
    "lat": 46.946,
    "lon": 35.44,
    "name:uk": "Мирне",
    "name:en": "Myrne"
  },
  {
    "id": 1034,
    "lat": 46.908,
    "lon": 30.724,
    "name:uk": "Петрівка",
    "name:en": "Petrivka"
  },
  {
    "id": 1035,
    "lat": 46.854,
    "lon": 31.387,
    "name:uk": "Березанка",
    "name:en": "Berezanka"
  },
  {
    "id": 1036,
    "lat": 46.854,
    "lon": 30.071,
    "name:uk": "Роздільна",
    "name:en": "Rozdilna"
  },
  {
    "id": 1037,
    "lat": 46.845,
    "lon": 34.377,
    "name:uk": "Нижні Сірогози",
    "name:en": "Nyzhni Sirohozy"
  },
  {
    "id": 1038,
    "lat": 46.835,
    "lon": 33.416,
    "name:uk": "Берислав",
    "name:en": "Beryslav"
  },
  {
    "id": 1039,
    "lat": 46.819,
    "lon": 30.943,
    "name:uk": "Доброслав",
    "name:en": "Dobroslav"
  },
  {
    "id": 1040,
    "lat": 46.811,
    "lon": 33.564,
    "name:uk": "Любимівка",
    "name:en": "Liubymivka"
  },
  {
    "id": 1041,
    "lat": 46.805,
    "lon": 33.481,
    "name:uk": "Каховка",
    "name:en": "Kakhovka"
  },
  {
    "id": 1042,
    "lat": 46.787,
    "lon": 33.338,
    "name:uk": "Козацьке",
    "name:en": "Kozatske"
  },
  {
    "id": 1043,
    "lat": 46.755,
    "lon": 33.424,
    "name:uk": "Таврійськ",
    "name:en": "Tavriisk"
  },
  {
    "id": 1044,
    "lat": 46.754,
    "lon": 33.374,
    "name:uk": "Нова Каховка",
    "name:en": "Nova Kakhovka"
  },
  {
    "id": 1045,
    "lat": 46.749,
    "lon": 33.263,
    "name:uk": "Дніпряни",
    "name:en": "Dnipriany"
  },
  {
    "id": 1046,
    "lat": 46.734,
    "lon": 36.347,
    "name:uk": "Приморськ",
    "name:en": "Prymorsk"
  },
  {
    "id": 1047,
    "lat": 46.738,
    "lon": 35.638,
    "name:uk": "Приазовське",
    "name:en": "Pryazovske"
  },
  {
    "id": 1048,
    "lat": 46.716,
    "lon": 32.648,
    "name:uk": "Зеленівка",
    "name:en": "Zelenivka"
  },
  {
    "id": 1049,
    "lat": 46.708,
    "lon": 34.544,
    "name:uk": "Іванівка",
    "name:en": "Ivanivka"
  },
  {
    "id": 1050,
    "lat": 46.696,
    "lon": 35.155,
    "name:uk": "Якимівка",
    "name:en": "Yakymivka"
  },
  {
    "id": 1051,
    "lat": 46.678,
    "lon": 32.723,
    "name:uk": "Антонівка",
    "name:en": "Antonivka"
  },
  {
    "id": 1052,
    "lat": 46.636,
    "lon": 32.503,
    "name:uk": "Комишани",
    "name:en": "Komyshany"
  },
  {
    "id": 1053,
    "lat": 46.63,
    "lon": 32.445,
    "name:uk": "Білозерка",
    "name:en": "Bilozerka"
  },
  {
    "id": 1054,
    "lat": 46.624,
    "lon": 32.725,
    "name:uk": "Олешки",
    "name:en": "Oleshky"
  },
  {
    "id": 1055,
    "lat": 46.532,
    "lon": 32.534,
    "name:uk": "Гола Пристань",
    "name:en": "Hola Prystan"
  },
  {
    "id": 1056,
    "lat": 46.505,
    "lon": 30.327,
    "name:uk": "Теплодар",
    "name:en": "Teplodar"
  },
  {
    "id": 1057,
    "lat": 46.482,
    "lon": 30.201,
    "name:uk": "Біляївка",
    "name:en": "Biliaivka"
  },
  {
    "id": 1058,
    "lat": 46.42,
    "lon": 33.141,
    "name:uk": "Брилівка",
    "name:en": "Brylivka"
  },
  {
    "id": 1059,
    "lat": 46.373,
    "lon": 30.69,
    "name:uk": "Лиманка",
    "name:en": "Lymanka"
  },
  {
    "id": 1060,
    "lat": 46.382,
    "lon": 34.535,
    "name:uk": "Сиваське",
    "name:en": "Syvaske"
  },
  {
    "id": 1061,
    "lat": 46.371,
    "lon": 35.369,
    "name:uk": "Кирилівка",
    "name:en": "Kyrylivka"
  },
  {
    "id": 1062,
    "lat": 46.361,
    "lon": 33.538,
    "name:uk": "Чаплинка",
    "name:en": "Chaplynka"
  },
  {
    "id": 1063,
    "lat": 46.355,
    "lon": 34.336,
    "name:uk": "Новотроїцьке",
    "name:en": "Novotroitske"
  },
  {
    "id": 1064,
    "lat": 46.346,
    "lon": 30.575,
    "name:uk": "Великодолинське",
    "name:en": "Velykodolynske"
  },
  {
    "id": 1065,
    "lat": 46.331,
    "lon": 34.748,
    "name:uk": "Рикове",
    "name:en": "Rykove"
  },
  {
    "id": 1066,
    "lat": 46.327,
    "lon": 30.631,
    "name:uk": "Олександрівка",
    "name:en": "Oleksandrivka"
  },
  {
    "id": 1067,
    "lat": 46.304,
    "lon": 29.018,
    "name:uk": "Серпневе",
    "name:en": "Serpneve"
  },
  {
    "id": 1068,
    "lat": 46.302,
    "lon": 30.653,
    "name:uk": "Чорноморськ",
    "name:en": "Chornomorsk"
  },
  {
    "id": 1069,
    "lat": 46.301,
    "lon": 29.24,
    "name:uk": "Бородіно",
    "name:en": "Borodino"
  },
  {
    "id": 1070,
    "lat": 46.257,
    "lon": 33.284,
    "name:uk": "Каланчак",
    "name:en": "Kalanchak"
  },
  {
    "id": 1071,
    "lat": 46.247,
    "lon": 30.444,
    "name:uk": "Овідіополь",
    "name:en": "Ovidiopol"
  },
  {
    "id": 1072,
    "lat": 46.227,
    "lon": 34.641,
    "name:uk": "Новоолексіївка",
    "name:en": "Novooleksiivka"
  },
  {
    "id": 1073,
    "lat": 46.226,
    "lon": 29.203,
    "name:uk": "Березине",
    "name:en": "Berezyne"
  },
  {
    "id": 1074,
    "lat": 46.182,
    "lon": 29.151,
    "name:uk": "Тарутине",
    "name:en": "Tarutyne"
  },
  {
    "id": 1075,
    "lat": 46.173,
    "lon": 34.806,
    "name:uk": "Генічеськ",
    "name:en": "Henichesk"
  },
  {
    "id": 1076,
    "lat": 46.12,
    "lon": 32.91,
    "name:uk": "Скадовськ",
    "name:en": "Skadovsk"
  },
  {
    "id": 1077,
    "lat": 46.113,
    "lon": 33.69,
    "name:uk": "Армянськ",
    "name:en": "Armyansk"
  },
  {
    "id": 1078,
    "lat": 46.086,
    "lon": 32.527,
    "name:uk": "Лазурне",
    "name:en": "Lazurne"
  },
  {
    "id": 1079,
    "lat": 46.063,
    "lon": 30.45,
    "name:uk": "Затока",
    "name:en": "Zatoka"
  },
  {
    "id": 1080,
    "lat": 46.027,
    "lon": 30.372,
    "name:uk": "Сергіївка",
    "name:en": "Serhiivka"
  },
  {
    "id": 1081,
    "lat": 46.022,
    "lon": 29.664,
    "name:uk": "Сарата",
    "name:en": "Sarata"
  },
  {
    "id": 1082,
    "lat": 45.996,
    "lon": 29.431,
    "name:uk": "Арциз",
    "name:en": "Artsyz"
  },
  {
    "id": 1083,
    "lat": 45.956,
    "lon": 33.797,
    "name:uk": "Красноперекопськ",
    "name:en": "Krasnoperekopsk"
  },
  {
    "id": 1084,
    "lat": 45.84,
    "lon": 29.616,
    "name:uk": "Татарбунари",
    "name:en": "Tatarbunary"
  },
  {
    "id": 1085,
    "lat": 45.768,
    "lon": 33.489,
    "name:uk": "Роздольне",
    "name:en": "Rozdol'noe"
  },
  {
    "id": 1086,
    "lat": 45.677,
    "lon": 28.613,
    "name:uk": "Болград",
    "name:en": "Bolhrad"
  },
  {
    "id": 1087,
    "lat": 45.586,
    "lon": 34.565,
    "name:uk": "Азовське",
    "name:en": "Azovskoye"
  },
  {
    "id": 1088,
    "lat": 45.581,
    "lon": 28.987,
    "name:uk": "Суворове",
    "name:en": "Suvorove"
  },
  {
    "id": 1089,
    "lat": 45.564,
    "lon": 34.301,
    "name:uk": "Вільне",
    "name:en": "Vol'noye"
  },
  {
    "id": 1090,
    "lat": 45.495,
    "lon": 34.295,
    "name:uk": "Красногвардійське",
    "name:en": "Krasnogvardeyskoe"
  },
  {
    "id": 1091,
    "lat": 45.455,
    "lon": 28.279,
    "name:uk": "Рені",
    "name:en": "Reni"
  },
  {
    "id": 1092,
    "lat": 45.44,
    "lon": 29.265,
    "name:uk": "Кілія",
    "name:en": "Kiliia"
  },
  {
    "id": 1093,
    "lat": 45.443,
    "lon": 34.738,
    "name:uk": "Нижньогірський",
    "name:en": "Nizhnegorskiy"
  },
  {
    "id": 1094,
    "lat": 45.44,
    "lon": 33.596,
    "name:uk": "Новоселівське",
    "name:en": "Novosyolovskoye"
  },
  {
    "id": 1095,
    "lat": 45.403,
    "lon": 29.583,
    "name:uk": "Вилкове",
    "name:en": "Vylkove"
  },
  {
    "id": 1096,
    "lat": 45.345,
    "lon": 34.923,
    "name:uk": "Совєтський",
    "name:en": "Sovietskyi"
  },
  {
    "id": 1097,
    "lat": 45.351,
    "lon": 28.836,
    "name:uk": "Ізмаїл",
    "name:en": "Izmail"
  },
  {
    "id": 1098,
    "lat": 45.293,
    "lon": 34.128,
    "name:uk": "Октябрське",
    "name:en": "Oktiabrskoe"
  },
  {
    "id": 1099,
    "lat": 45.131,
    "lon": 33.6,
    "name:uk": "Саки",
    "name:en": "Saky"
  },
  {
    "id": 1100,
    "lat": 45.119,
    "lon": 35.481,
    "name:uk": "Приморський",
    "name:en": "Primorski"
  },
  {
    "id": 1101,
    "lat": 45.094,
    "lon": 33.575,
    "name:uk": "Новофедорівка",
    "name:en": "Novofedorovka"
  },
  {
    "id": 1102,
    "lat": 45.058,
    "lon": 34.594,
    "name:uk": "Білогірськ",
    "name:en": "Belogorsk"
  },
  {
    "id": 1103,
    "lat": 45.054,
    "lon": 34.322,
    "name:uk": "Зуя",
    "name:en": "Zuya"
  },
  {
    "id": 1104,
    "lat": 45.019,
    "lon": 34.001,
    "name:uk": "Аерофлотський",
    "name:en": "Aeroflotskyi"
  },
  {
    "id": 1105,
    "lat": 45.016,
    "lon": 34.048,
    "name:uk": "Аграрне",
    "name:en": "Agrarnoye"
  },
  {
    "id": 1106,
    "lat": 45.01,
    "lon": 34.026,
    "name:uk": "Гресівський",
    "name:en": "Gresovsky"
  },
  {
    "id": 1107,
    "lat": 45.009,
    "lon": 34.056,
    "name:uk": "Молодіжне",
    "name:en": "Molodizhne"
  },
  {
    "id": 1108,
    "lat": 44.964,
    "lon": 35.358,
    "name:uk": "Орджонікідзе",
    "name:en": "Ordzhonikidze"
  },
  {
    "id": 1109,
    "lat": 44.938,
    "lon": 35.156,
    "name:uk": "Щебетовка",
    "name:en": "Shchebetovka"
  },
  {
    "id": 1110,
    "lat": 44.914,
    "lon": 35.188,
    "name:uk": "Курортне",
    "name:en": "Kurortnoe"
  },
  {
    "id": 1111,
    "lat": 44.834,
    "lon": 33.962,
    "name:uk": "Поштове",
    "name:en": "Pochtovoye"
  },
  {
    "id": 1112,
    "lat": 44.775,
    "lon": 33.543,
    "name:uk": "Кача",
    "name:en": "Kacha"
  },
  {
    "id": 1113,
    "lat": 44.631,
    "lon": 33.864,
    "name:uk": "Куйбишеве",
    "name:en": "Kuybyshevo"
  },
  {
    "id": 1114,
    "lat": 44.618,
    "lon": 33.604,
    "name:uk": "Інкерман",
    "name:en": "Inkerman"
  },
  {
    "id": 1115,
    "lat": 44.581,
    "lon": 34.342,
    "name:uk": "Партеніт",
    "name:en": "Partenit"
  },
  {
    "id": 1116,
    "lat": 44.563,
    "lon": 34.288,
    "name:uk": "Краснокам’янка",
    "name:en": "Krasnokamenka"
  },
  {
    "id": 1117,
    "lat": 44.547,
    "lon": 34.273,
    "name:uk": "Гурзуф",
    "name:en": "Gurzuf"
  },
  {
    "id": 1118,
    "lat": 44.531,
    "lon": 34.188,
    "name:uk": "Совєтське",
    "name:en": "Sovietskoe"
  },
  {
    "id": 1119,
    "lat": 44.515,
    "lon": 34.237,
    "name:uk": "Нікіта",
    "name:en": "Nikita"
  },
  {
    "id": 1120,
    "lat": 44.505,
    "lon": 34.214,
    "name:uk": "Відрадне",
    "name:en": "Otradnoe"
  },
  {
    "id": 1121,
    "lat": 44.513,
    "lon": 34.219,
    "name:uk": "Восход",
    "name:en": "Voskhod"
  },
  {
    "id": 1122,
    "lat": 44.508,
    "lon": 34.188,
    "name:uk": "Масандра",
    "name:en": "Massandra"
  },
  {
    "id": 1123,
    "lat": 44.476,
    "lon": 34.141,
    "name:uk": "Виноградне",
    "name:en": "Vinogradnoe"
  },
  {
    "id": 1124,
    "lat": 44.466,
    "lon": 34.141,
    "name:uk": "Лівадія",
    "name:en": "Livadiya"
  },
  {
    "id": 1125,
    "lat": 44.46,
    "lon": 34.136,
    "name:uk": "Ореанда",
    "name:en": "Oreanda"
  },
  {
    "id": 1126,
    "lat": 44.442,
    "lon": 34.132,
    "name:uk": "Курпати",
    "name:en": "Kurpaty"
  },
  {
    "id": 1127,
    "lat": 44.434,
    "lon": 34.091,
    "name:uk": "Кореїз",
    "name:en": "Koreiz"
  },
  {
    "id": 1128,
    "lat": 44.435,
    "lon": 34.102,
    "name:uk": "Гаспра",
    "name:en": "Gaspra"
  },
  {
    "id": 1129,
    "lat": 44.407,
    "lon": 33.987,
    "name:uk": "Голуба Затока",
    "name:en": "Goluboy Zaliv"
  },
  {
    "id": 1130,
    "lat": 44.405,
    "lon": 34.005,
    "name:uk": "Сімеїз",
    "name:en": "Simeiz"
  },
  {
    "id": 1131,
    "lat": 44.405,
    "lon": 33.911,
    "name:uk": "Паркове",
    "name:en": "Parkovoe"
  },
  {
    "id": 1132,
    "lat": 44.402,
    "lon": 33.822,
    "name:uk": "Санаторне",
    "name:en": "Sanatornoye"
  },
  {
    "id": 1133,
    "lat": 44.397,
    "lon": 33.972,
    "name:uk": "Кацівелі",
    "name:en": "Katsiveli"
  },
  {
    "id": 1134,
    "lat": 44.395,
    "lon": 33.952,
    "name:uk": "Понизівка",
    "name:en": "Ponizovka"
  },
  {
    "id": 1135,
    "lat": 44.391,
    "lon": 33.787,
    "name:uk": "Форос",
    "name:en": "Foros"
  },
  {
    "id": 1136,
    "lat": 48.929,
    "lon": 38.555,
    "name:uk": "Метьолкіне",
    "name:en": "Metolkine"
  },
  {
    "id": 1137,
    "lat": 48.286,
    "lon": 25.937,
    "name:uk": "Чернівці",
    "name:en": "Chernivtsi"
  },
  {
    "id": 1138,
    "lat": 49.755,
    "lon": 31.461,
    "name:uk": "Канів",
    "name:en": "Kaniv"
  },
  {
    "id": 1139,
    "lat": 49.923,
    "lon": 30.143,
    "name:uk": "Дослідницьке",
    "name:en": "Doslidnytske"
  },
  {
    "id": 1140,
    "lat": 49.555,
    "lon": 30.502,
    "name:uk": "Тараща",
    "name:en": "Tarashcha"
  },
  {
    "id": 1141,
    "lat": 50.119,
    "lon": 27.508,
    "name:uk": "Полонне",
    "name:en": "Polonne"
  },
  {
    "id": 1142,
    "lat": 46.982,
    "lon": 30.462,
    "name:uk": "Іванівка",
    "name:en": "Ivanivka"
  },
  {
    "id": 1143,
    "lat": 46.19,
    "lon": 30.345,
    "name:uk": "Білгород-Дністровський",
    "name:en": "Bilhorod-Dnistrovskyi"
  },
  {
    "id": 1144,
    "lat": 48.207,
    "lon": 37.972,
    "name:uk": "Пантелеймонівка",
    "name:en": "Panteleimonivka"
  },
  {
    "id": 1145,
    "lat": 47.947,
    "lon": 23.874,
    "name:uk": "Солотвино",
    "name:en": "Solotvyno"
  },
  {
    "id": 1146,
    "lat": 49.903,
    "lon": 36.479,
    "name:uk": "Рогань",
    "name:en": "Rohan"
  },
  {
    "id": 1147,
    "lat": 48.048,
    "lon": 23.486,
    "name:uk": "Буштино",
    "name:en": "Bushtyno"
  },
  {
    "id": 1148,
    "lat": 49.719,
    "lon": 28.835,
    "name:uk": "Козятин",
    "name:en": "Koziatyn"
  },
  {
    "id": 1149,
    "lat": 49.668,
    "lon": 32.042,
    "name:uk": "Золотоноша",
    "name:en": "Zolotonosha"
  },
  {
    "id": 1150,
    "lat": 50.595,
    "lon": 32.386,
    "name:uk": "Прилуки",
    "name:en": "Pryluky"
  },
  {
    "id": 1151,
    "lat": 45.383,
    "lon": 33.117,
    "name:uk": "Новоозерне",
    "name:en": "Novoozernoe"
  },
  {
    "id": 1152,
    "lat": 45.155,
    "lon": 33.274,
    "name:uk": "Заозерне",
    "name:en": "Zaozernoe"
  },
  {
    "id": 1153,
    "lat": 51.003,
    "lon": 26.752,
    "name:uk": "Березне",
    "name:en": "Berezne"
  },
  {
    "id": 1154,
    "lat": 47.852,
    "lon": 38.011,
    "name:uk": "Горбачево-Михайлівка",
    "name:en": "Horbachevo-Mykhailivka"
  },
  {
    "id": 1155,
    "lat": 49.415,
    "lon": 38.155,
    "name:uk": "Сватове",
    "name:en": "Svatove"
  },
  {
    "id": 1156,
    "lat": 49.805,
    "lon": 24.898,
    "name:uk": "Золочів",
    "name:en": "Zolochiv"
  },
  {
    "id": 1157,
    "lat": 50.619,
    "lon": 27.159,
    "name:uk": "Корець",
    "name:en": "Korets"
  },
  {
    "id": 1158,
    "lat": 50.463,
    "lon": 29.806,
    "name:uk": "Макарів",
    "name:en": "Makariv"
  },
  {
    "id": 1159,
    "lat": 47.982,
    "lon": 38.282,
    "name:uk": "Шахтне",
    "name:en": "Shakhtne"
  },
  {
    "id": 1160,
    "lat": 47.91,
    "lon": 33.391,
    "name:uk": "Кривий Ріг",
    "name:en": "Kryvyi Rih"
  },
  {
    "id": 1161,
    "lat": 47.477,
    "lon": 36.262,
    "name:uk": "Пологи",
    "name:en": "Polohy"
  },
  {
    "id": 1162,
    "lat": 47.255,
    "lon": 35.702,
    "name:uk": "Токмак",
    "name:en": "Tokmak"
  },
  {
    "id": 1163,
    "lat": 50.783,
    "lon": 30.307,
    "name:uk": "Димер",
    "name:en": "Dymer"
  },
  {
    "id": 1164,
    "lat": 48.133,
    "lon": 37.746,
    "name:uk": "Авдіївка",
    "name:en": "Avdiivka"
  },
  {
    "id": 1165,
    "lat": 48.8,
    "lon": 32.403,
    "name:uk": "Єлизаветградка",
    "name:en": "Yelyzavethradka"
  },
  {
    "id": 1166,
    "lat": 50.076,
    "lon": 36.793,
    "name:uk": "Старий Салтів",
    "name:en": "Staryi Saltiv"
  },
  {
    "id": 1167,
    "lat": 46.622,
    "lon": 31.099,
    "name:uk": "Южне",
    "name:en": "Yuzhne"
  },
  {
    "id": 1168,
    "lat": 47.256,
    "lon": 34.333,
    "name:uk": "Верхній Рогачик",
    "name:en": "Verkhnii Rohachyk"
  },
  {
    "id": 1169,
    "lat": 49.418,
    "lon": 31.255,
    "name:uk": "Корсунь-Шевченківський",
    "name:en": "Korsun-Shevchenkivskyi"
  },
  {
    "id": 1170,
    "lat": 50.581,
    "lon": 34.476,
    "name:uk": "Лебедин",
    "name:en": "Lebedyn"
  },
  {
    "id": 1171,
    "lat": 47.566,
    "lon": 33.647,
    "name:uk": "Зеленодольськ",
    "name:en": "Zelenodolsk"
  },
  {
    "id": 1172,
    "lat": 48.999,
    "lon": 25.855,
    "name:uk": "Заводське",
    "name:en": "Zavodske"
  },
  {
    "id": 1173,
    "lat": 49.555,
    "lon": 25.591,
    "name:uk": "Тернопіль",
    "name:en": "Ternopil"
  },
  {
    "id": 1174,
    "lat": 49.46,
    "lon": 24.062,
    "name:uk": "Розділ",
    "name:en": "Rozdil"
  },
  {
    "id": 1175,
    "lat": 50.642,
    "lon": 30.029,
    "name:uk": "Бабинці",
    "name:en": "Babyntsi"
  },
  {
    "id": 1176,
    "lat": 49.992,
    "lon": 36.231,
    "name:uk": "Харків",
    "name:en": "Kharkiv"
  },
  {
    "id": 1177,
    "lat": 49.818,
    "lon": 36.062,
    "name:uk": "Мерефа",
    "name:en": "Merefa"
  },
  {
    "id": 1178,
    "lat": 49.106,
    "lon": 25.908,
    "name:uk": "Копичинці",
    "name:en": "Kopychyntsi"
  },
  {
    "id": 1179,
    "lat": 47.169,
    "lon": 30.814,
    "name:uk": "Раухівка",
    "name:en": "Raukhivka"
  },
  {
    "id": 1180,
    "lat": 49.556,
    "lon": 27.949,
    "name:uk": "Хмільник",
    "name:en": "Khmilnyk"
  },
  {
    "id": 1181,
    "lat": 48.578,
    "lon": 25.281,
    "name:uk": "Гвіздець",
    "name:en": "Hvizdets"
  },
  {
    "id": 1182,
    "lat": 47.665,
    "lon": 36.265,
    "name:uk": "Гуляйполе",
    "name:en": "Huliaipole"
  },
  {
    "id": 1183,
    "lat": 50.939,
    "lon": 34.372,
    "name:uk": "Миколаївка",
    "name:en": "Mykolaivka"
  },
  {
    "id": 1184,
    "lat": 49.309,
    "lon": 28.473,
    "name:uk": "Стрижавка",
    "name:en": "Stryzhavka"
  },
  {
    "id": 1185,
    "lat": 49.383,
    "lon": 37.633,
    "name:uk": "Борова",
    "name:en": "Borova"
  },
  {
    "id": 1186,
    "lat": 48.516,
    "lon": 34.606,
    "name:uk": "Кам’янське",
    "name:en": "Kamianske"
  },
  {
    "id": 1187,
    "lat": 48.23,
    "lon": 38.185,
    "name:uk": "Єнакієве",
    "name:en": "Yenakiieve"
  },
  {
    "id": 1188,
    "lat": 46.848,
    "lon": 35.367,
    "name:uk": "Мелітополь",
    "name:en": "Melitopol"
  },
  {
    "id": 1189,
    "lat": 47.693,
    "lon": 32.51,
    "name:uk": "Новий Буг",
    "name:en": "Novyi Buh"
  },
  {
    "id": 1190,
    "lat": 49.484,
    "lon": 29.257,
    "name:uk": "Погребище",
    "name:en": "Pohrebysche"
  },
  {
    "id": 1191,
    "lat": 49.865,
    "lon": 30.822,
    "name:uk": "Кагарлик",
    "name:en": "Kaharlyk"
  },
  {
    "id": 1192,
    "lat": 45.033,
    "lon": 35.375,
    "name:uk": "Феодосія",
    "name:en": "Feodosia"
  },
  {
    "id": 1193,
    "lat": 45.353,
    "lon": 36.453,
    "name:uk": "Керч",
    "name:en": "Kerch"
  },
  {
    "id": 1194,
    "lat": 44.497,
    "lon": 34.158,
    "name:uk": "Ялта",
    "name:en": "Yalta"
  },
  {
    "id": 1195,
    "lat": 48.468,
    "lon": 37.09,
    "name:uk": "Добропілля",
    "name:en": "Dobropillia"
  },
  {
    "id": 1196,
    "lat": 51.567,
    "lon": 32.952,
    "name:uk": "Короп",
    "name:en": "Korop"
  },
  {
    "id": 1197,
    "lat": 49.13,
    "lon": 24.499,
    "name:uk": "Войнилів",
    "name:en": "Voinyliv"
  },
  {
    "id": 1198,
    "lat": 50.379,
    "lon": 34.584,
    "name:uk": "Чупахівка",
    "name:en": "Chupakhivka"
  },
  {
    "id": 1199,
    "lat": 48.706,
    "lon": 35.379,
    "name:uk": "Черкаське",
    "name:en": "Cherkaske"
  },
  {
    "id": 1200,
    "lat": 50.466,
    "lon": 24.261,
    "name:uk": "Жвирка",
    "name:en": "Zhvyrka"
  },
  {
    "id": 1201,
    "lat": 50.592,
    "lon": 29.453,
    "name:uk": "Городок",
    "name:en": "Horodok"
  },
  {
    "id": 1202,
    "lat": 48.018,
    "lon": 38.269,
    "name:uk": "Зугрес",
    "name:en": "Zuhres"
  },
  {
    "id": 1203,
    "lat": 49.957,
    "lon": 34.61,
    "name:uk": "Опішня",
    "name:en": "Opishnia"
  },
  {
    "id": 1204,
    "lat": 49.681,
    "lon": 36.354,
    "name:uk": "Зміїв",
    "name:en": "Zmiiv"
  },
  {
    "id": 1205,
    "lat": 48.698,
    "lon": 25.171,
    "name:uk": "Обертин",
    "name:en": "Obertyn"
  },
  {
    "id": 1206,
    "lat": 48.089,
    "lon": 39.368,
    "name:uk": "Ровеньки",
    "name:en": "Rovenky"
  },
  {
    "id": 1207,
    "lat": 46.661,
    "lon": 29.976,
    "name:uk": "Лиманське",
    "name:en": "Lymanske"
  },
  {
    "id": 1208,
    "lat": 48,
    "lon": 37.583,
    "name:uk": "Старомихайлівка",
    "name:en": "Staromykhailivka"
  },
  {
    "id": 1209,
    "lat": 44.42,
    "lon": 34.048,
    "name:uk": "Алупка",
    "name:en": "Alupka"
  },
  {
    "id": 1210,
    "lat": 48.02,
    "lon": 39.059,
    "name:uk": "Нижній Нагольчик",
    "name:en": "Nyzhnii Naholchyk"
  },
  {
    "id": 1211,
    "lat": 48.051,
    "lon": 39.025,
    "name:uk": "Єсаулівка",
    "name:en": "Yesaulivka"
  },
  {
    "id": 1212,
    "lat": 47.645,
    "lon": 36.169,
    "name:uk": "Залізничне",
    "name:en": "Zaliznychne"
  },
  {
    "id": 1213,
    "lat": 48.336,
    "lon": 29.867,
    "name:uk": "Гайворон",
    "name:en": "Haivoron"
  },
  {
    "id": 1214,
    "lat": 48.812,
    "lon": 29.967,
    "name:uk": "Христинівка",
    "name:en": "Khrystynivka"
  },
  {
    "id": 1215,
    "lat": 49.033,
    "lon": 37.557,
    "name:uk": "Святогірськ",
    "name:en": "Sviatohirsk"
  },
  {
    "id": 1216,
    "lat": 48.368,
    "lon": 35.082,
    "name:uk": "Авіаторське",
    "name:en": "Aviatorske"
  },
  {
    "id": 1217,
    "lat": 48.842,
    "lon": 32.331,
    "name:uk": "Лісове",
    "name:en": "Lisove"
  },
  {
    "id": 1218,
    "lat": 47.184,
    "lon": 31.793,
    "name:uk": "Ольшанське",
    "name:en": "Olshanske"
  },
  {
    "id": 1219,
    "lat": 46.596,
    "lon": 33.221,
    "name:uk": "Нова Маячка",
    "name:en": "Nova Maiachka"
  },
  {
    "id": 1220,
    "lat": 48.741,
    "lon": 39.235,
    "name:uk": "Щастя",
    "name:en": "Schastia"
  },
  {
    "id": 1221,
    "lat": 47.954,
    "lon": 39.735,
    "name:uk": "Бірюкове",
    "name:en": "Biriukove"
  },
  {
    "id": 1222,
    "lat": 51.811,
    "lon": 26.128,
    "name:uk": "Зарічне",
    "name:en": "Zarichne"
  },
  {
    "id": 1223,
    "lat": 50.511,
    "lon": 30.79,
    "name:uk": "Бровари",
    "name:en": "Brovary"
  },
  {
    "id": 1224,
    "lat": 49.037,
    "lon": 23.514,
    "name:uk": "Сколе",
    "name:en": "Skole"
  },
  {
    "id": 1225,
    "lat": 48.51,
    "lon": 32.265,
    "name:uk": "Кропивницький",
    "name:en": "Kropyvnytskyi"
  },
  {
    "id": 1226,
    "lat": 48.641,
    "lon": 38.647,
    "name:uk": "Holubivka",
    "name:en": "Holubivka"
  },
  {
    "id": 1227,
    "lat": 49.458,
    "lon": 28.526,
    "name:uk": "Калинівка",
    "name:en": "Kalynivka"
  },
  {
    "id": 1228,
    "lat": 49.658,
    "lon": 30.982,
    "name:uk": "Миронівка",
    "name:en": "Myronivka"
  },
  {
    "id": 1229,
    "lat": 48.404,
    "lon": 38.088,
    "name:uk": "Гольмівський",
    "name:en": "Holmivskyi"
  },
  {
    "id": 1230,
    "lat": 47.864,
    "lon": 31.574,
    "name:uk": "Братське",
    "name:en": "Bratske"
  }
]